{"type":"FeatureCollection","features":[{"type":"Feature","properties":{"nombre":"Escobar","region":"GBA","cordon":3,"enRed":true,"lat":-34.32906,"lon":-58.78073},"geometry":{"type":"Polygon","coordinates":[[[-58.712152,-34.248902],[-58.649515,-34.266598],[-58.654375,-34.272532],[-58.680813,-34.347213],[-58.686031,-34.351207],[-58.690393,-34.347182],[-58.720619,-34.36329],[-58.721257,-34.364705],[-58.70532886,-34.37297257],[-58.714621,-34.388227],[-58.721358,-34.390084],[-58.715909,-34.392543],[-58.734634,-34.40246],[-58.70560976,-34.43933705],[-58.73731318,-34.45641566],[-58.777666,-34.404272],[-58.788323,-34.399672],[-58.798174,-34.410272],[-58.816989,-34.415404],[-58.83937319,-34.38632864],[-58.842992,-34.387199],[-58.90080985,-34.31093857],[-58.900643,-34.308488],[-58.892159,-34.306658],[-58.89381,-34.304553],[-58.891466,-34.303174],[-58.888991,-34.305147],[-58.88881,-34.300291],[-58.885097,-34.301089],[-58.885294,-34.299069],[-58.880793,-34.297921],[-58.882302,-34.295705],[-58.878211,-34.291603],[-58.881401,-34.291201],[-58.882983,-34.286759],[-58.879788,-34.288651],[-58.878417,-34.286915],[-58.880254,-34.285863],[-58.87706,-34.284672],[-58.881129,-34.283358],[-58.877382,-34.280515],[-58.877921,-34.274441],[-58.874641,-34.275766],[-58.8758,-34.273473],[-58.870806,-34.272673],[-58.863914,-34.277233],[-58.860324,-34.273133],[-58.864673,-34.266986],[-58.858387,-34.261979],[-58.849829,-34.264118],[-58.84389513,-34.2698096],[-58.840667,-34.26786],[-58.829822,-34.274821],[-58.822255,-34.272405],[-58.808992,-34.281201],[-58.803837,-34.281066],[-58.799813,-34.276775],[-58.791135,-34.282584],[-58.78013,-34.286551],[-58.776382,-34.285744],[-58.774818,-34.280317],[-58.776544,-34.273815],[-58.781258,-34.271073],[-58.788136,-34.25495],[-58.793592,-34.25161],[-58.803303,-34.236333],[-58.798512,-34.230221],[-58.793096,-34.229397],[-58.770339,-34.237614],[-58.712152,-34.248902]]]}},{"type":"Feature","properties":{"nombre":"José C. Paz","region":"GBA","cordon":2,"enRed":true,"lat":-34.50494,"lon":-58.77919},"geometry":{"type":"Polygon","coordinates":[[[-58.821687,-34.451956],[-58.760678,-34.495146],[-58.72919,-34.508182],[-58.72089876,-34.51823428],[-58.753224,-34.548878],[-58.75633618,-34.55084631],[-58.76149117,-34.5471137],[-58.77602805,-34.55705776],[-58.823584,-34.508215],[-58.819157,-34.501693],[-58.819709,-34.496426],[-58.814457,-34.492559],[-58.811153,-34.485744],[-58.815006,-34.470705],[-58.813779,-34.464134],[-58.821418,-34.45531],[-58.821687,-34.451956]]]}},{"type":"Feature","properties":{"nombre":"Moreno","region":"GBA","cordon":2,"enRed":true,"lat":-34.59273,"lon":-58.80609},"geometry":{"type":"Polygon","coordinates":[[[-58.823771,-34.508367],[-58.77694,-34.557917],[-58.713374,-34.605638],[-58.717161,-34.607516],[-58.723525,-34.6193],[-58.72493333,-34.63010001],[-58.731618,-34.637823],[-58.731742,-34.642561],[-58.757549,-34.660482],[-58.7665,-34.662051],[-58.768856,-34.665061],[-58.780091,-34.665963],[-58.794381,-34.673252],[-58.80965,-34.677314],[-58.80965,-34.680725],[-58.818311,-34.685589],[-58.823673,-34.682568],[-58.834345,-34.686162],[-58.860294,-34.685206],[-58.883346,-34.671757],[-58.884468,-34.668796],[-58.880958,-34.632179],[-58.881338,-34.628731],[-58.884309,-34.627195],[-58.864113,-34.616882],[-58.890951,-34.579812],[-58.863921,-34.564368],[-58.847501,-34.549171],[-58.839836,-34.532936],[-58.829994,-34.522474],[-58.823771,-34.508367]]]}},{"type":"Feature","properties":{"nombre":"La Matanza Norte","region":"GBA","cordon":1,"enRed":true,"lat":-34.6774,"lon":-58.5608},"geometry":{"type":"Polygon","coordinates":[[[-58.556033,-34.63468],[-58.4616552,-34.70513496],[-58.48451615,-34.72756958],[-58.48390198,-34.73213577],[-58.504473,-34.721278],[-58.512664,-34.739894],[-58.538749,-34.746805],[-58.535743,-34.755157],[-58.537507,-34.756953],[-58.545882,-34.758892],[-58.551406,-34.750907],[-58.55656,-34.757136],[-58.566983,-34.757761],[-58.569336,-34.761992],[-58.567596,-34.765754],[-58.574834,-34.768529],[-58.575208,-34.772757],[-58.572171,-34.775224],[-58.577794,-34.77825],[-58.580747,-34.776384],[-58.58634,-34.780372],[-58.584364,-34.782744],[-58.587936,-34.786576],[-58.58830046669953,-34.7935801321446],[-58.66127466014791,-34.7276543153976],[-58.655007,-34.722318],[-58.64960233,-34.72654059],[-58.636154,-34.715029],[-58.64298852,-34.70960849],[-58.63937905,-34.70062058],[-58.580707,-34.649398],[-58.581876,-34.64317],[-58.570261,-34.641345],[-58.57091638,-34.63836607],[-58.556033,-34.63468]]]}},{"type":"Feature","properties":{"nombre":"La Matanza Sur","region":"GBA","cordon":2,"enRed":true,"lat":-34.8327,"lon":-58.7011},"geometry":{"type":"Polygon","coordinates":[[[-58.588446,-34.793723],[-58.595904,-34.803686],[-58.594479,-34.805573],[-58.597586,-34.804831],[-58.59958851,-34.81099422],[-58.606595,-34.810707],[-58.615506,-34.818527],[-58.617747,-34.829137],[-58.62495,-34.84422],[-58.628657,-34.846571],[-58.63039,-34.853138],[-58.642796,-34.868848],[-58.646857,-34.889685],[-58.685928,-34.911805],[-58.694651,-34.911828],[-58.762494,-34.858422],[-58.749862,-34.847367],[-58.774041,-34.828664],[-58.744496,-34.825273],[-58.740082,-34.823709],[-58.734476,-34.81722],[-58.719669,-34.817941],[-58.707404,-34.811653],[-58.75024716,-34.77758846],[-58.72839642,-34.75930741],[-58.703884,-34.778711],[-58.681935,-34.7595],[-58.67361,-34.766327],[-58.657915,-34.753297],[-58.675462,-34.739295],[-58.66127466014791,-34.7276543153976],[-58.588446,-34.793723]]]}},{"type":"Feature","properties":{"nombre":"Vicente López","region":"GBA","cordon":1,"enRed":true,"lat":-34.52899,"lon":-58.50636},"geometry":{"type":"Polygon","coordinates":[[[-58.47939957,-34.48976107],[-58.47926738,-34.49727005],[-58.47648936,-34.49771025],[-58.47468692,-34.50960756],[-58.46841228,-34.51332665],[-58.46980426,-34.51808796],[-58.46772699,-34.52294205],[-58.45956409,-34.5277839],[-58.46415498,-34.53338959],[-58.50080364,-34.54953285],[-58.50995973,-34.56920514],[-58.524613,-34.55044],[-58.529811,-34.537332],[-58.537781,-34.544164],[-58.553764,-34.530205],[-58.53123,-34.513086],[-58.47939957,-34.48976107]]]}},{"type":"Feature","properties":{"nombre":"Berazategui","region":"GBA","cordon":2,"enRed":true,"lat":-34.84387,"lon":-58.14115},"geometry":{"type":"Polygon","coordinates":[[[-58.194645,-34.73569491],[-58.17914358,-34.74447939],[-58.16586619,-34.74777733],[-58.11699682,-34.75070406],[-58.06591455,-34.7730472],[-58.05376502,-34.77660212],[-58.01768779,-34.78031806],[-58.147857,-34.887437],[-58.207968,-34.941983],[-58.203636,-34.945245],[-58.21108465,-34.95178335],[-58.247414,-34.923592],[-58.179871,-34.866004],[-58.194871,-34.821746],[-58.199915,-34.813772],[-58.238496,-34.800408],[-58.252648,-34.790348],[-58.267461,-34.773646],[-58.194645,-34.73569491]]]}},{"type":"Feature","properties":{"nombre":"Campana","region":"GBA","cordon":3,"enRed":true,"lat":-34.1637,"lon":-58.9587},"geometry":{"type":"Polygon","coordinates":[[[-58.76373859,-33.94531025],[-58.73351944,-33.96648746],[-58.684021,-34.01928711],[-58.67530005,-34.02546679],[-58.793145,-34.078259],[-58.804028,-34.080777],[-58.80475,-34.087515],[-58.773051,-34.119824],[-58.76385,-34.126474],[-58.768427,-34.13177],[-58.764556,-34.144121],[-58.758971,-34.151522],[-58.74679,-34.154412],[-58.7467,-34.165507],[-58.733221,-34.168905],[-58.719648,-34.168463],[-58.6914,-34.172432],[-58.695023,-34.186898],[-58.694356,-34.20059],[-58.70164,-34.213691],[-58.710837,-34.219097],[-58.709548,-34.228773],[-58.712152,-34.248902],[-58.770339,-34.237614],[-58.793096,-34.229397],[-58.798512,-34.230221],[-58.803303,-34.236333],[-58.793592,-34.25161],[-58.788136,-34.25495],[-58.781258,-34.271073],[-58.776544,-34.273815],[-58.774886,-34.281056],[-58.775818,-34.285249],[-58.778742,-34.286755],[-58.791135,-34.282584],[-58.799813,-34.276775],[-58.803837,-34.281066],[-58.808338,-34.281375],[-58.822255,-34.272405],[-58.829822,-34.274821],[-58.840667,-34.26786],[-58.84389513,-34.2698096],[-58.849829,-34.264118],[-58.856171,-34.261816],[-58.862832,-34.264175],[-58.864641,-34.267203],[-58.860324,-34.273133],[-58.863914,-34.277233],[-58.870806,-34.272673],[-58.8758,-34.273473],[-58.874641,-34.275766],[-58.877921,-34.274441],[-58.877382,-34.280515],[-58.881129,-34.283358],[-58.87706,-34.284672],[-58.880254,-34.285863],[-58.878417,-34.286915],[-58.879788,-34.288651],[-58.882983,-34.286759],[-58.881401,-34.291201],[-58.878211,-34.291603],[-58.882302,-34.295705],[-58.880793,-34.297921],[-58.885294,-34.299069],[-58.885097,-34.301089],[-58.88881,-34.300291],[-58.888991,-34.305147],[-58.893282,-34.303934],[-58.891983,-34.30655],[-58.898385,-34.306822],[-58.901071,-34.311139],[-58.9034047,-34.30868182],[-58.90239716,-34.31138992],[-58.908094,-34.312393],[-58.910964,-34.31705],[-58.908654,-34.318184],[-58.909357,-34.32016],[-58.914931,-34.320724],[-58.911768,-34.326036],[-58.916808,-34.325671],[-58.915477,-34.332726],[-58.918377,-34.334212],[-58.91438,-34.335816],[-58.917771,-34.339637],[-58.916928,-34.343645],[-58.913576,-34.344784],[-58.916186,-34.345665],[-58.914559,-34.34975],[-58.91798,-34.352307],[-58.914552,-34.355035],[-58.915798,-34.357227],[-58.907739,-34.359949],[-58.909383,-34.363365],[-58.912073,-34.363595],[-58.911816,-34.365894],[-58.917631,-34.366842],[-58.917429,-34.370329],[-58.921214,-34.371547],[-58.918162,-34.372394],[-58.919208,-34.378113],[-58.917237,-34.380474],[-58.919735,-34.381035],[-58.942029,-34.355938],[-58.94498994,-34.35912151],[-58.977169,-34.320557],[-58.981064,-34.322746],[-59.014265,-34.295631],[-59.015184,-34.289909],[-59.037155,-34.270713],[-59.035042,-34.268429],[-59.061558,-34.24804],[-59.057152,-34.241501],[-59.078202,-34.224516],[-59.091502,-34.228217],[-59.105807,-34.213902],[-59.102264,-34.19745],[-58.973315,-34.129096],[-58.972779,-34.119304],[-58.977497,-34.113277],[-59.00410818,-34.10321782],[-59.009521,-34.099071],[-59.000536,-34.087853],[-58.966046,-33.960581],[-58.96144,-33.963671],[-58.955005,-33.963954],[-58.93348,-33.957371],[-58.849531,-33.957611],[-58.838025,-33.956023],[-58.83720127,-33.95375109],[-58.81561084,-33.95459015],[-58.77770996,-33.94262695],[-58.76373859,-33.94531025]]]}},{"type":"Feature","properties":{"nombre":"San Fernando","region":"GBA","cordon":2,"enRed":true,"lat":-34.4472,"lon":-58.5702},"geometry":{"type":"MultiPolygon","coordinates":[[[[-58.23320599,-34.25373254],[-58.23941638,-34.25690912],[-58.24341388,-34.26822345],[-58.24973135,-34.26697424],[-58.24976704,-34.26401181],[-58.24455602,-34.26029985],[-58.24512709,-34.25423222],[-58.24084406,-34.24802183],[-58.23556166,-34.24969935],[-58.23320599,-34.25373254]]],[[[-58.24277618,-34.24872932],[-58.24628589,-34.25360722],[-58.24575051,-34.26021022],[-58.2519966,-34.26437428],[-58.26597593,-34.24896727],[-58.26591644,-34.25438054],[-58.26912871,-34.25806871],[-58.26151444,-34.26895474],[-58.27269791,-34.27038242],[-58.27817067,-34.26800296],[-58.27299534,-34.23409564],[-58.26795031,-34.22574086],[-58.24277618,-34.24872932]]],[[[-58.2535819,-34.20486497],[-58.25064879,-34.21280459],[-58.25604882,-34.21917087],[-58.250814,-34.21907569],[-58.24971945,-34.22150274],[-58.25333623,-34.22992603],[-58.26375827,-34.22197863],[-58.26732746,-34.21089034],[-58.26128363,-34.20527481],[-58.2535819,-34.20486497]]],[[[-58.27628693,-34.21870053],[-58.30084296,-34.2400205],[-58.30512599,-34.22869426],[-58.30588742,-34.23706996],[-58.3088889,-34.23632206],[-58.31017045,-34.24363728],[-58.31540527,-34.24563602],[-58.32882542,-34.2400205],[-58.33339399,-34.20870679],[-58.32331697,-34.19212195],[-58.31159813,-34.18795789],[-58.27999889,-34.21061036],[-58.27628693,-34.21870053]]],[[[-58.28266388,-34.23555901],[-58.28851736,-34.23817641],[-58.29365699,-34.2492647],[-58.30098573,-34.25093033],[-58.29951047,-34.240889],[-58.27647728,-34.2219009],[-58.28266388,-34.23555901]]],[[[-58.29108717,-34.26987084],[-58.29579851,-34.26715825],[-58.29389494,-34.26092406],[-58.29641717,-34.25573684],[-58.28804146,-34.23893784],[-58.28233076,-34.23731981],[-58.28285424,-34.25711692],[-58.29108717,-34.26987084]]],[[[-58.31671397,-34.24744441],[-58.31552424,-34.25553458],[-58.32153238,-34.24899106],[-58.32743638,-34.24946034],[-58.33295379,-34.24500547],[-58.33075279,-34.24018706],[-58.31671397,-34.24744441]]],[[[-58.32000666,-34.17653465],[-58.31682882,-34.17843466],[-58.31711202,-34.18130901],[-58.33070437,-34.19480909],[-58.33447108,-34.19525515],[-58.33665385,-34.19190364],[-58.3362541,-34.17591366],[-58.33311321,-34.17351517],[-58.32684095,-34.16052807],[-58.3239856,-34.16278856],[-58.32000666,-34.17653465]]],[[[-58.33111447,-34.15181448],[-58.33288251,-34.15349737],[-58.32597483,-34.15775362],[-58.33585435,-34.17420045],[-58.33876591,-34.15729597],[-58.34210364,-34.15129361],[-58.33334164,-34.1462751],[-58.33111447,-34.15181448]]],[[[-58.33229944,-34.2183555],[-58.33402455,-34.24423214],[-58.33295379,-34.25154899],[-58.34265009,-34.24536239],[-58.34788491,-34.23643941],[-58.3523464,-34.23697479],[-58.35258434,-34.23227535],[-58.35008591,-34.23370303],[-58.35222742,-34.22936051],[-58.34770645,-34.23298919],[-58.35151359,-34.22715951],[-58.35032386,-34.22263853],[-58.33842655,-34.21300172],[-58.33229944,-34.2183555]]],[[[-58.33244221,-34.13532958],[-58.33810532,-34.13385431],[-58.3382005,-34.13042789],[-58.33582104,-34.12957128],[-58.33244221,-34.13532958]]],[[[-58.33490101,-34.14505197],[-58.34149277,-34.14857088],[-58.33718087,-34.13806372],[-58.33490101,-34.14505197]]],[[[-58.34991222,-34.25431708],[-58.34129858,-34.27016429],[-58.34496295,-34.27592258],[-58.3478183,-34.27639847],[-58.34962669,-34.2683559],[-58.34591473,-34.26716617],[-58.34943633,-34.2639301],[-58.34991222,-34.25431708]]],[[[-58.36352442,-34.02206128],[-58.34992778,-34.03656766],[-58.3449857,-34.038413],[-58.35084026,-34.04482138],[-58.35355398,-34.05190722],[-58.34863901,-34.04901429],[-58.3508995,-34.05683677],[-58.35599528,-34.05423755],[-58.35904699,-34.06224631],[-58.36602783,-34.06469727],[-58.3626709,-34.06988525],[-58.36157227,-34.09008789],[-58.36583312,-34.11279763],[-58.35963705,-34.12070541],[-58.359875,-34.1220736],[-58.36374162,-34.12653509],[-58.36677544,-34.13236477],[-58.36810303,-34.14178467],[-58.37109375,-34.14477539],[-58.36871338,-34.1519165],[-58.37329102,-34.15808105],[-58.37109375,-34.17169189],[-58.35372806,-34.18560273],[-58.351765,-34.19952258],[-58.353966,-34.20463842],[-58.3601526,-34.20713686],[-58.36384077,-34.21255013],[-58.36806431,-34.21023015],[-58.3685402,-34.21409678],[-58.38543438,-34.20987324],[-58.38359029,-34.21897467],[-58.38037802,-34.22444743],[-58.39643938,-34.22575614],[-58.39257276,-34.22801663],[-58.39352454,-34.23015814],[-58.40090087,-34.22801663],[-58.40149574,-34.23027711],[-58.38963809,-34.23521648],[-58.38864665,-34.24027085],[-58.40119831,-34.25781937],[-58.40679004,-34.25972294],[-58.40911001,-34.25829527],[-58.41430664,-34.26312256],[-58.42077637,-34.26519775],[-58.43170166,-34.265625],[-58.4362793,-34.26300049],[-58.43719482,-34.26641846],[-58.44268799,-34.26641846],[-58.45147705,-34.2658081],[-58.45269775,-34.26330566],[-58.45629883,-34.2711792],[-58.46270752,-34.27380371],[-58.47799913,-34.273126],[-58.49994965,-34.26753427],[-58.49661841,-34.26973527],[-58.49566663,-34.27413727],[-58.48686262,-34.27955055],[-58.49864095,-34.28579663],[-58.50965231,-34.29619614],[-58.53033947,-34.29486464],[-58.54004767,-34.29572125],[-58.53970638,-34.29837571],[-58.549102,-34.297106],[-58.597238,-34.277653],[-58.649515,-34.266598],[-58.712152,-34.248902],[-58.709548,-34.228773],[-58.710837,-34.219097],[-58.70164,-34.213691],[-58.694356,-34.20059],[-58.695023,-34.186898],[-58.6914,-34.172432],[-58.719648,-34.168463],[-58.733221,-34.168905],[-58.7467,-34.165507],[-58.74679,-34.154412],[-58.758971,-34.151522],[-58.764556,-34.144121],[-58.768427,-34.13177],[-58.76385,-34.126474],[-58.773051,-34.119824],[-58.80475,-34.087515],[-58.804028,-34.080777],[-58.793145,-34.078259],[-58.67530005,-34.02546679],[-58.66046999,-34.03335031],[-58.63786511,-34.03929896],[-58.60717007,-34.03787128],[-58.5959866,-34.03549182],[-58.57861654,-34.02716371],[-58.5531563,-34.02668782],[-58.51379394,-34.01538086],[-58.4925059,-34.00646098],[-58.4631958,-34.00189209],[-58.3789247,-34.01222587],[-58.36352442,-34.02206128]]],[[[-58.35290798,-34.07663015],[-58.34919602,-34.07741538],[-58.34637636,-34.09547548],[-58.34844649,-34.10075789],[-58.35247968,-34.09547548],[-58.35290798,-34.07663015]]],[[[-58.35868527,-34.11892082],[-58.35220124,-34.1273679],[-58.35823912,-34.14286414],[-58.36350368,-34.13227554],[-58.36689441,-34.13524987],[-58.35922065,-34.12189514],[-58.35868527,-34.11892082]]],[[[-58.36862072,-34.21708072],[-58.36769868,-34.22076888],[-58.37697858,-34.22225605],[-58.37448014,-34.22427859],[-58.37697858,-34.22543857],[-58.38257031,-34.2198171],[-58.38355184,-34.21223257],[-58.36862072,-34.21708072]]],[[[-58.37523179,-34.24494728],[-58.37723053,-34.24489969],[-58.37875339,-34.23740439],[-58.37485107,-34.24178259],[-58.37523179,-34.24494728]]],[[[-58.38046966,-34.23712472],[-58.38137385,-34.23880224],[-58.38190923,-34.23694626],[-58.38046966,-34.23712472]]],[[[-58.46635087,-34.29491596],[-58.46300058,-34.29566787],[-58.46136352,-34.29697181],[-58.46556088,-34.29708603],[-58.46635087,-34.29491596]]],[[[-58.46486995,-34.28604533],[-58.4626392,-34.28608102],[-58.46218711,-34.28669968],[-58.46486995,-34.28604533]]],[[[-58.49131089,-34.28424973],[-58.46725496,-34.28542508],[-58.46586536,-34.28683372],[-58.48381601,-34.28847079],[-58.47980583,-34.28946699],[-58.48539839,-34.29012731],[-58.48305458,-34.29176396],[-58.48625258,-34.29357235],[-58.48506357,-34.29631713],[-58.486816,-34.29756036],[-58.49436199,-34.29703284],[-58.50101079,-34.2934034],[-58.4994276,-34.28967273],[-58.49131089,-34.28424973]]],[[[-58.46692194,-34.2969147],[-58.46964404,-34.29894201],[-58.46615099,-34.30430055],[-58.4702627,-34.30569016],[-58.48179833,-34.29807588],[-58.46992958,-34.29418308],[-58.46692194,-34.2969147]]],[[[-58.48227845,-34.29893576],[-58.47389799,-34.30557446],[-58.47383693,-34.30891892],[-58.47842848,-34.30920076],[-58.47711978,-34.31084258],[-58.47911853,-34.31181816],[-58.47488309,-34.31353138],[-58.47521621,-34.31533977],[-58.4678732,-34.31669606],[-58.47472604,-34.3214645],[-58.47656775,-34.32070783],[-58.47504013,-34.31715292],[-58.47895197,-34.32046513],[-58.48736449,-34.31768395],[-58.50869979,-34.30084396],[-58.500319,-34.29488725],[-58.49394204,-34.29818042],[-58.48227845,-34.29893576]]],[[[-58.47293022,-34.28442035],[-58.47732746,-34.28367796],[-58.48077292,-34.282098],[-58.47530968,-34.28205993],[-58.47293022,-34.28442035]]],[[[-58.55794658,-34.42409212],[-58.52838982,-34.4421591],[-58.516165,-34.443321],[-58.519475,-34.44852],[-58.577922,-34.476027],[-58.600303,-34.490354],[-58.599057,-34.485646],[-58.60647094,-34.48038153],[-58.59927,-34.474414],[-58.59875753,-34.46355607],[-58.594462,-34.460066],[-58.595171,-34.448343],[-58.579511,-34.444465],[-58.560342,-34.430001],[-58.55794658,-34.42409212]]]]}},{"type":"Feature","properties":{"nombre":"Tigre","region":"GBA","cordon":2,"enRed":true,"lat":-34.4235,"lon":-58.5818},"geometry":{"type":"MultiPolygon","coordinates":[[[[-58.44136748,-34.32694445],[-58.43708445,-34.32744414],[-58.43965426,-34.33174145],[-58.44136748,-34.32694445]]],[[[-58.4500763,-34.32830075],[-58.44133892,-34.32802949],[-58.44141031,-34.33625291],[-58.44533642,-34.33148447],[-58.4500763,-34.32830075]]],[[[-58.44284655,-34.33796517],[-58.44848245,-34.33345867],[-58.4504989,-34.32915164],[-58.44455976,-34.33284457],[-58.44284655,-34.33796517]]],[[[-58.46893812,-34.32656621],[-58.45864746,-34.33095732],[-58.45646193,-34.3345416],[-58.4575547,-34.34183034],[-58.45677883,-34.34457319],[-58.44980357,-34.3478551],[-58.44566331,-34.35508866],[-58.44640094,-34.35651634],[-58.45158816,-34.35389893],[-58.45269572,-34.34999939],[-58.45342151,-34.34919331],[-58.45389536,-34.34919331],[-58.45249236,-34.35351822],[-58.44271277,-34.3650586],[-58.4463757,-34.37485372],[-58.44997903,-34.3770043],[-58.45435289,-34.37665679],[-58.4652417,-34.36411744],[-58.48641464,-34.32943838],[-58.48583547,-34.32655348],[-58.46893812,-34.32656621]]],[[[-58.44404675,-34.33942235],[-58.45078538,-34.34661784],[-58.4563363,-34.34366465],[-58.45341231,-34.33068497],[-58.44404675,-34.33942235]]],[[[-58.53970638,-34.29837571],[-58.53876276,-34.30571498],[-58.52876903,-34.30328793],[-58.51891806,-34.30443007],[-58.51037598,-34.30877685],[-58.49468994,-34.32366943],[-58.48498535,-34.33459473],[-58.47198486,-34.36029053],[-58.45412124,-34.38801828],[-58.4600223,-34.38573399],[-58.46649443,-34.38982667],[-58.47563156,-34.39058809],[-58.47563156,-34.39506148],[-58.48105673,-34.39601326],[-58.48029531,-34.39943969],[-58.48334102,-34.40429379],[-58.48115191,-34.40772021],[-58.4816278,-34.41362128],[-58.49571421,-34.41209842],[-58.49082442,-34.42434075],[-58.49203795,-34.42930192],[-58.48836168,-34.43408464],[-58.49053889,-34.43861751],[-58.494465,-34.436476],[-58.50395905,-34.42284169],[-58.5054938,-34.42426936],[-58.49960463,-34.43415602],[-58.50206738,-34.44015227],[-58.52214882,-34.44390983],[-58.528797,-34.441955],[-58.53952,-34.43284],[-58.55794658,-34.42409212],[-58.560342,-34.430001],[-58.579511,-34.444465],[-58.595171,-34.448343],[-58.594462,-34.460066],[-58.59875753,-34.46355607],[-58.59927,-34.474414],[-58.60647094,-34.48038153],[-58.599057,-34.485646],[-58.600936,-34.493087],[-58.598342,-34.498168],[-58.603139,-34.51247],[-58.60151659,-34.52124054],[-58.606343,-34.534542],[-58.67821,-34.474651],[-58.734634,-34.40246],[-58.715909,-34.392543],[-58.721358,-34.390084],[-58.714621,-34.388227],[-58.70532886,-34.37297257],[-58.721257,-34.364705],[-58.720619,-34.36329],[-58.690393,-34.347182],[-58.686031,-34.351207],[-58.679814,-34.345687],[-58.654375,-34.272532],[-58.649515,-34.266598],[-58.608303,-34.274427],[-58.549102,-34.297106],[-58.53970638,-34.29837571]]]]}},{"type":"Feature","properties":{"nombre":"Almirante Brown","region":"GBA","cordon":2,"enRed":true,"lat":-34.84043,"lon":-58.37078},"geometry":{"type":"Polygon","coordinates":[[[-58.33663877,-34.75440132],[-58.30977868,-34.79338736],[-58.3328,-34.805754],[-58.292471,-34.854868],[-58.31714796,-34.86815398],[-58.31246031,-34.87483795],[-58.3421,-34.890711],[-58.346298,-34.885034],[-58.396445,-34.909881],[-58.415943,-34.883021],[-58.408792,-34.879458],[-58.447753,-34.825989],[-58.405102,-34.804573],[-58.409954,-34.798587],[-58.358683,-34.771354],[-58.362003,-34.767389],[-58.33663877,-34.75440132]]]}},{"type":"Feature","properties":{"nombre":"Presidente Perón","region":"GBA","cordon":3,"enRed":true,"lat":-34.94033,"lon":-58.41204},"geometry":{"type":"Polygon","coordinates":[[[-58.415943,-34.883021],[-58.396445,-34.909881],[-58.346298,-34.885034],[-58.3421,-34.890711],[-58.31246031,-34.87483795],[-58.29718396,-34.89510739],[-58.280898,-34.907612],[-58.27460701,-34.91706012],[-58.29405919,-34.91531521],[-58.378007,-34.955786],[-58.37762,-34.950493],[-58.394616,-34.958878],[-58.38986076,-34.96542024],[-58.39818437,-34.96950122],[-58.401654,-34.97439],[-58.408331,-34.97787],[-58.411961,-34.973464],[-58.421622,-34.981909],[-58.430381,-34.978061],[-58.468702,-35.011275],[-58.470264,-34.997669],[-58.463054,-34.951454],[-58.491914,-34.930168],[-58.490155,-34.928838],[-58.49186,-34.927632],[-58.463578,-34.907758],[-58.452124,-34.902783],[-58.453245,-34.901214],[-58.422399,-34.886192],[-58.413042,-34.873576],[-58.408792,-34.879458],[-58.415943,-34.883021]]]}},{"type":"Feature","properties":{"nombre":"Brandsen","region":"GBA","cordon":3,"enRed":false,"lat":-35.20123,"lon":-58.24428},"geometry":{"type":"Polygon","coordinates":[[[-58.120261,-35.004572],[-58.1772513,-35.05715209],[-58.11005088,-35.10842829],[-58.101843,-35.101177],[-58.030576,-35.154197],[-58.018072,-35.168111],[-58.077531,-35.220003],[-58.054086,-35.236827],[-57.968108,-35.159689],[-57.890143,-35.222141],[-58.035841,-35.343998],[-58.044821,-35.334563],[-58.138618,-35.420373],[-58.18685,-35.382581],[-58.219269,-35.40803786],[-58.259555,-35.377109],[-58.246816,-35.365325],[-58.446903,-35.214031],[-58.414816,-35.185434],[-58.410697,-35.188431],[-58.35271,-35.137863],[-58.338844,-35.148527],[-58.236268,-35.058275],[-58.247687,-35.049771],[-58.24658441,-35.04828474],[-58.161419,-34.971845],[-58.120261,-35.004572]]]}},{"type":"Feature","properties":{"nombre":"Merlo","region":"GBA","cordon":2,"enRed":true,"lat":-34.70708,"lon":-58.74747},"geometry":{"type":"Polygon","coordinates":[[[-58.72902479,-34.63478365],[-58.661008,-34.692348],[-58.64097431,-34.70454309],[-58.64298852,-34.70960849],[-58.636154,-34.715029],[-58.64960233,-34.72654059],[-58.655007,-34.722318],[-58.675462,-34.739295],[-58.657915,-34.753297],[-58.67361,-34.766327],[-58.681935,-34.7595],[-58.703884,-34.778711],[-58.72839642,-34.75930741],[-58.75024716,-34.77758846],[-58.770361,-34.761721],[-58.830365,-34.724346],[-58.86429511,-34.69842167],[-58.860294,-34.685206],[-58.834345,-34.686162],[-58.823673,-34.682568],[-58.818311,-34.685589],[-58.80965,-34.680725],[-58.80965,-34.677314],[-58.794381,-34.673252],[-58.780091,-34.665963],[-58.768856,-34.665061],[-58.7665,-34.662051],[-58.757549,-34.660482],[-58.731742,-34.642561],[-58.72902479,-34.63478365]]]}},{"type":"Feature","properties":{"nombre":"Esteban Echeverría","region":"GBA","cordon":2,"enRed":true,"lat":-34.82162,"lon":-58.47478},"geometry":{"type":"Polygon","coordinates":[[[-58.50079713,-34.72299155],[-58.43052818,-34.81724804],[-58.447753,-34.825989],[-58.413042,-34.873576],[-58.422399,-34.886192],[-58.453245,-34.901214],[-58.452124,-34.902783],[-58.463578,-34.907758],[-58.49186,-34.927632],[-58.510333,-34.901681],[-58.50411,-34.881357],[-58.502852,-34.854959],[-58.506584,-34.844551],[-58.514397,-34.797831],[-58.524502,-34.779139],[-58.52050663,-34.74105554],[-58.512664,-34.739894],[-58.504605,-34.721433],[-58.50079713,-34.72299155]]]}},{"type":"Feature","properties":{"nombre":"Exaltación de la Cruz","region":"GBA","cordon":3,"enRed":false,"lat":-34.31437,"lon":-59.12672},"geometry":{"type":"Polygon","coordinates":[[[-59.31234,-34.161043],[-59.237161,-34.171812],[-59.238771,-34.179714],[-59.10306511,-34.20009379],[-59.105807,-34.213902],[-59.091502,-34.228217],[-59.078202,-34.224516],[-59.057152,-34.241501],[-59.061558,-34.24804],[-59.035042,-34.268429],[-59.037155,-34.270713],[-59.015184,-34.289909],[-59.014265,-34.295631],[-58.981064,-34.322746],[-58.977169,-34.320557],[-58.94498994,-34.35912151],[-58.942029,-34.355938],[-58.91853,-34.381908],[-58.922191,-34.38307],[-58.920037,-34.385766],[-58.923065,-34.386411],[-58.921194,-34.391626],[-58.923756,-34.393316],[-58.921704,-34.394888],[-58.922511,-34.401582],[-58.919756,-34.403242],[-58.922475,-34.405697],[-58.918903,-34.413786],[-58.92424,-34.416969],[-58.980257,-34.350643],[-58.993226,-34.358077],[-58.984011,-34.369004],[-58.991787,-34.373465],[-58.990311,-34.375165],[-58.994294,-34.377239],[-58.992981,-34.379286],[-59.028577,-34.397713],[-59.025132,-34.40197],[-59.042152,-34.414178],[-59.039978,-34.416994],[-59.044274,-34.419243],[-59.04275,-34.421152],[-59.071652,-34.436086],[-59.07342,-34.433962],[-59.0759119,-34.43533949],[-59.074088,-34.437591],[-59.07724478,-34.43924749],[-59.075411,-34.441716],[-59.080214,-34.444221],[-59.077206,-34.451173],[-59.081709,-34.453591],[-59.080403,-34.455346],[-59.097653,-34.464318],[-59.129594,-34.42061],[-59.132279,-34.423267],[-59.196245,-34.374069],[-59.192601,-34.370541],[-59.240949,-34.333968],[-59.25429,-34.32314],[-59.252517,-34.321649],[-59.274593,-34.304927],[-59.278258,-34.308185],[-59.310353,-34.289433],[-59.298677,-34.26429],[-59.375263,-34.238057],[-59.374629,-34.232799],[-59.378109,-34.226055],[-59.375203,-34.224633],[-59.371006,-34.206854],[-59.3666,-34.198921],[-59.358114,-34.19492],[-59.344996,-34.180114],[-59.33776,-34.176342],[-59.324703,-34.163679],[-59.31234,-34.161043]]]}},{"type":"Feature","properties":{"nombre":"San Miguel","region":"GBA","cordon":2,"enRed":true,"lat":-34.55438,"lon":-58.70386},"geometry":{"type":"Polygon","coordinates":[[[-58.64659082,-34.50138405],[-58.60635752,-34.53453018],[-58.617681,-34.546904],[-58.626383,-34.546764],[-58.647147,-34.563513],[-58.658379,-34.566189],[-58.667466,-34.573555],[-58.670856,-34.572793],[-58.681673,-34.581411],[-58.684543,-34.588221],[-58.68982,-34.58904],[-58.696203,-34.595636],[-58.709706,-34.601397],[-58.713374,-34.605638],[-58.77694,-34.557917],[-58.76149117,-34.5471137],[-58.75633618,-34.55084631],[-58.753224,-34.548878],[-58.72089876,-34.51823428],[-58.701269,-34.532748],[-58.694452,-34.526289],[-58.689134,-34.530159],[-58.64659082,-34.50138405]]]}},{"type":"Feature","properties":{"nombre":"San Andrés de Giles","region":"GBA","cordon":3,"enRed":false,"lat":-34.43205,"lon":-59.47822},"geometry":{"type":"Polygon","coordinates":[[[-59.37477824,-34.23872563],[-59.298677,-34.26429],[-59.310353,-34.289433],[-59.278258,-34.308185],[-59.274593,-34.304927],[-59.252517,-34.321649],[-59.25429,-34.32314],[-59.240949,-34.333968],[-59.192601,-34.370541],[-59.199422,-34.377148],[-59.206077,-34.389941],[-59.209557,-34.389941],[-59.212691,-34.395183],[-59.2234,-34.400906],[-59.221677,-34.40176],[-59.224816,-34.405463],[-59.239323,-34.413704],[-59.239636,-34.416019],[-59.217716,-34.446564],[-59.472223,-34.577199],[-59.482796,-34.570723],[-59.501681,-34.579923],[-59.523664,-34.596894],[-59.568824,-34.560587],[-59.63243,-34.615017],[-59.768409,-34.507296],[-59.735111,-34.477819],[-59.767615,-34.452814],[-59.675315,-34.404056],[-59.673812,-34.399405],[-59.670525,-34.397923],[-59.644583,-34.417529],[-59.618845,-34.396637],[-59.606599,-34.40614],[-59.542667,-34.350548],[-59.489198,-34.320965],[-59.49072687,-34.31891686],[-59.480097,-34.313302],[-59.478296,-34.315862],[-59.468258,-34.310608],[-59.466258,-34.313226],[-59.437825,-34.299091],[-59.431969,-34.306666],[-59.423801,-34.302611],[-59.427299,-34.297002],[-59.415838,-34.290935],[-59.422613,-34.282649],[-59.411872,-34.276257],[-59.41948317,-34.26860695],[-59.401089,-34.265816],[-59.396177,-34.262907],[-59.382569,-34.246431],[-59.376773,-34.244104],[-59.37477824,-34.23872563]]]}},{"type":"Feature","properties":{"nombre":"Pilar","region":"GBA","cordon":3,"enRed":true,"lat":-34.4571,"lon":-58.9142},"geometry":{"type":"Polygon","coordinates":[[[-58.9034047,-34.30868182],[-58.842992,-34.387199],[-58.83937319,-34.38632864],[-58.816989,-34.415404],[-58.798174,-34.410272],[-58.788323,-34.399672],[-58.777666,-34.404272],[-58.73731318,-34.45641566],[-58.752016,-34.467763],[-58.756207,-34.462412],[-58.764695,-34.467244],[-58.770188,-34.464836],[-58.771196,-34.468339],[-58.784689,-34.476157],[-58.821687,-34.451956],[-58.821418,-34.45531],[-58.813779,-34.464134],[-58.815006,-34.470705],[-58.811153,-34.485744],[-58.813519,-34.491148],[-58.819709,-34.496426],[-58.819157,-34.501693],[-58.829994,-34.522474],[-58.839836,-34.532936],[-58.847501,-34.549171],[-58.863921,-34.564368],[-58.885066,-34.577051],[-58.92842,-34.516204],[-58.96189,-34.533741],[-59.000683,-34.48342],[-59.003939,-34.48686],[-59.010541,-34.488286],[-59.0562718,-34.42820631],[-59.04275,-34.421152],[-59.044274,-34.419243],[-59.039978,-34.416994],[-59.042152,-34.414178],[-59.025132,-34.40197],[-59.028577,-34.397713],[-58.992981,-34.379286],[-58.994294,-34.377239],[-58.990311,-34.375165],[-58.991787,-34.373465],[-58.984011,-34.369004],[-58.993226,-34.358077],[-58.980257,-34.350643],[-58.92424,-34.416969],[-58.919672,-34.414768],[-58.919298,-34.409718],[-58.922481,-34.405546],[-58.919756,-34.403242],[-58.922409,-34.401863],[-58.921668,-34.39506],[-58.923756,-34.393316],[-58.921194,-34.391626],[-58.923065,-34.386411],[-58.920037,-34.385766],[-58.922191,-34.38307],[-58.918393,-34.383044],[-58.919833,-34.380616],[-58.917237,-34.380474],[-58.919208,-34.378113],[-58.918199,-34.372204],[-58.921214,-34.371547],[-58.917429,-34.370329],[-58.917631,-34.366842],[-58.911816,-34.365894],[-58.912073,-34.363595],[-58.909383,-34.363365],[-58.907739,-34.359949],[-58.915798,-34.357227],[-58.914552,-34.355035],[-58.91798,-34.352307],[-58.914559,-34.34975],[-58.916186,-34.345665],[-58.913576,-34.344784],[-58.917059,-34.343245],[-58.917738,-34.339518],[-58.914339,-34.33598],[-58.91835,-34.334492],[-58.915477,-34.332726],[-58.917353,-34.328004],[-58.916208,-34.325283],[-58.9118019,-34.32616241],[-58.914931,-34.320724],[-58.909357,-34.32016],[-58.908654,-34.318184],[-58.910964,-34.31705],[-58.908094,-34.312393],[-58.90239716,-34.31138992],[-58.9034047,-34.30868182]]]}},{"type":"Feature","properties":{"nombre":"Luján","region":"GBA","cordon":3,"enRed":true,"lat":-34.58304,"lon":-59.14582},"geometry":{"type":"Polygon","coordinates":[[[-59.19674131,-34.37365356],[-59.132279,-34.423267],[-59.129594,-34.42061],[-59.097653,-34.464318],[-59.080403,-34.455346],[-59.081709,-34.453591],[-59.077206,-34.451173],[-59.080214,-34.444221],[-59.075411,-34.441716],[-59.07724478,-34.43924749],[-59.074088,-34.437591],[-59.0759119,-34.43533949],[-59.07342,-34.433962],[-59.071652,-34.436086],[-59.0562718,-34.42820631],[-59.010541,-34.488286],[-59.003939,-34.48686],[-59.000683,-34.48342],[-58.954201,-34.543725],[-58.987192,-34.559859],[-58.984036,-34.564545],[-58.992634,-34.568578],[-58.986596,-34.577436],[-59.025544,-34.59281],[-59.030134,-34.590868],[-59.032568,-34.592276],[-59.039256,-34.588643],[-59.070986,-34.604392],[-59.056377,-34.616464],[-59.089723,-34.634093],[-59.091312,-34.632035],[-59.115331,-34.644473],[-59.113291,-34.647049],[-59.136081,-34.65886],[-59.091209,-34.719233],[-59.120954,-34.754374],[-59.131502,-34.76172],[-59.145352,-34.783266],[-59.16497846,-34.8034693],[-59.25589905,-34.68558328],[-59.241284,-34.677329],[-59.28122741,-34.62584729],[-59.262446,-34.620116],[-59.304843,-34.564774],[-59.33852499,-34.50844354],[-59.217716,-34.446564],[-59.239636,-34.416019],[-59.239323,-34.413704],[-59.224816,-34.405463],[-59.221677,-34.40176],[-59.2234,-34.400906],[-59.212691,-34.395183],[-59.209557,-34.389941],[-59.206077,-34.389941],[-59.19674131,-34.37365356]]]}},{"type":"Feature","properties":{"nombre":"Hurlingham","region":"GBA","cordon":1,"enRed":true,"lat":-34.59849,"lon":-58.65324},"geometry":{"type":"Polygon","coordinates":[[[-58.64634474,-34.56292986],[-58.61602754,-34.58870518],[-58.619718,-34.603898],[-58.618636,-34.623774],[-58.621808,-34.633151],[-58.653486,-34.631612],[-58.684382,-34.605172],[-58.682222,-34.603234],[-58.69393394,-34.59374154],[-58.68982,-34.58904],[-58.684543,-34.588221],[-58.681673,-34.581411],[-58.670856,-34.572793],[-58.667466,-34.573555],[-58.658379,-34.566189],[-58.64634474,-34.56292986]]]}},{"type":"Feature","properties":{"nombre":"Morón","region":"GBA","cordon":1,"enRed":true,"lat":-34.64628,"lon":-58.61926},"geometry":{"type":"Polygon","coordinates":[[[-58.61602754,-34.58870518],[-58.592765,-34.607961],[-58.588799,-34.606092],[-58.5722362,-34.62874353],[-58.566712,-34.625903],[-58.55610707,-34.63470324],[-58.57091638,-34.63836607],[-58.570261,-34.641345],[-58.581876,-34.64317],[-58.580707,-34.649398],[-58.63937905,-34.70062058],[-58.64097431,-34.70454309],[-58.661008,-34.692348],[-58.667381,-34.685988],[-58.653486,-34.631612],[-58.621808,-34.633151],[-58.620379,-34.631419],[-58.618194,-34.619244],[-58.619718,-34.603898],[-58.61602754,-34.58870518]]]}},{"type":"Feature","properties":{"nombre":"Malvinas Argentinas","region":"GBA","cordon":2,"enRed":true,"lat":-34.48227,"lon":-58.72366},"geometry":{"type":"Polygon","coordinates":[[[-58.705563,-34.439311],[-58.677703,-34.475146],[-58.64659082,-34.50138405],[-58.688507,-34.530014],[-58.694452,-34.526289],[-58.701269,-34.532748],[-58.71986,-34.519201],[-58.72919,-34.508182],[-58.760678,-34.495146],[-58.771579,-34.488467],[-58.78454093,-34.47606592],[-58.771196,-34.468339],[-58.770188,-34.464836],[-58.764695,-34.467244],[-58.756207,-34.462412],[-58.752016,-34.467763],[-58.744117,-34.46355],[-58.744337,-34.459981],[-58.705563,-34.439311]]]}},{"type":"Feature","properties":{"nombre":"General San Martín","region":"GBA","cordon":1,"enRed":true,"lat":-34.5436,"lon":-58.57611},"geometry":{"type":"Polygon","coordinates":[[[-58.600303,-34.490354],[-58.537781,-34.544164],[-58.529811,-34.537332],[-58.524613,-34.55044],[-58.50995973,-34.56920514],[-58.52297151,-34.59756322],[-58.562314,-34.591405],[-58.619241,-34.54673],[-58.612793,-34.543034],[-58.60587,-34.53403],[-58.60151659,-34.52124054],[-58.603139,-34.51247],[-58.598342,-34.498168],[-58.600303,-34.490354]]]}},{"type":"Feature","properties":{"nombre":"Ituzaingó","region":"GBA","cordon":1,"enRed":true,"lat":-34.66039,"lon":-58.67952},"geometry":{"type":"Polygon","coordinates":[[[-58.682222,-34.603234],[-58.684382,-34.605172],[-58.653486,-34.631612],[-58.667381,-34.685988],[-58.72902479,-34.63478365],[-58.72493333,-34.63010001],[-58.723688,-34.619712],[-58.71896846,-34.61050282],[-58.709898,-34.60151],[-58.69393394,-34.59374154],[-58.682222,-34.603234]]]}},{"type":"Feature","properties":{"nombre":"General Rodríguez","region":"GBA","cordon":3,"enRed":true,"lat":-34.63928,"lon":-58.99347},"geometry":{"type":"Polygon","coordinates":[[[-58.92842,-34.516204],[-58.885066,-34.577051],[-58.890951,-34.579812],[-58.864113,-34.616882],[-58.884309,-34.627195],[-58.881338,-34.628731],[-58.880958,-34.632179],[-58.884468,-34.668796],[-58.883346,-34.671757],[-58.863696,-34.683365],[-58.869411,-34.689426],[-58.887752,-34.696546],[-58.900705,-34.699047],[-58.912302,-34.69812],[-58.91344,-34.700948],[-58.92114,-34.699334],[-58.935344,-34.703731],[-58.952648,-34.71666],[-58.956629,-34.727545],[-58.966439,-34.739272],[-58.982076,-34.751388],[-58.990263,-34.754404],[-58.998289,-34.762792],[-59.003257,-34.763985],[-59.021767,-34.758254],[-59.03175,-34.763825],[-59.089806,-34.71714],[-59.091209,-34.719233],[-59.133682,-34.664055],[-59.136081,-34.65886],[-59.113291,-34.647049],[-59.115331,-34.644473],[-59.091312,-34.632035],[-59.089723,-34.634093],[-59.056377,-34.616464],[-59.070986,-34.604392],[-59.039256,-34.588643],[-59.032568,-34.592276],[-59.030134,-34.590868],[-59.025544,-34.59281],[-58.986596,-34.577436],[-58.992634,-34.568578],[-58.984036,-34.564545],[-58.987192,-34.559859],[-58.954201,-34.543725],[-58.96189,-34.533741],[-58.92842,-34.516204]]]}},{"type":"Feature","properties":{"nombre":"Tres de Febrero","region":"GBA","cordon":1,"enRed":true,"lat":-34.60183,"lon":-58.5625},"geometry":{"type":"Polygon","coordinates":[[[-58.619897,-34.546574],[-58.562314,-34.591405],[-58.52297151,-34.59756322],[-58.53146519,-34.61596622],[-58.52921123,-34.65463957],[-58.566712,-34.625903],[-58.5722362,-34.62874353],[-58.588799,-34.606092],[-58.592765,-34.607961],[-58.646336,-34.562968],[-58.626383,-34.546764],[-58.619897,-34.546574]]]}},{"type":"Feature","properties":{"nombre":"General Las Heras","region":"GBA","cordon":3,"enRed":false,"lat":-34.91417,"lon":-58.98948},"geometry":{"type":"Polygon","coordinates":[[[-59.03175,-34.763825],[-59.03373,-34.766925],[-58.951498,-34.831176],[-58.936187,-34.817828],[-58.925109,-34.826312],[-58.893581,-34.854405],[-58.84527,-34.891708],[-58.859086,-34.904052],[-58.777483,-34.964965],[-58.838421,-35.01706],[-58.864032,-35.043612],[-58.934096,-35.103508],[-59.014807,-35.041293],[-58.992581,-35.021429],[-59.075439,-34.957992],[-59.08657361,-34.94865668],[-59.084835,-34.947229],[-59.087329,-34.945331],[-59.116263,-34.924286],[-59.155162,-34.901349],[-59.218728,-34.852572],[-59.154282,-34.793575],[-59.131502,-34.76172],[-59.115391,-34.748444],[-59.089806,-34.71714],[-59.03175,-34.763825]]]}},{"type":"Feature","properties":{"nombre":"Marcos Paz","region":"GBA","cordon":3,"enRed":true,"lat":-34.7865,"lon":-58.8297},"geometry":{"type":"Polygon","coordinates":[[[-58.860294,-34.685206],[-58.864576,-34.695873],[-58.860894,-34.701334],[-58.830365,-34.724346],[-58.770361,-34.761721],[-58.707051,-34.811268],[-58.719669,-34.817941],[-58.734476,-34.81722],[-58.740082,-34.823709],[-58.744496,-34.825273],[-58.774041,-34.828664],[-58.749862,-34.847367],[-58.762494,-34.858422],[-58.694106,-34.91219455],[-58.727694,-34.924213],[-58.738361,-34.93632],[-58.751073,-34.940748],[-58.765341,-34.958997],[-58.78652,-34.954267],[-58.791141,-34.955317],[-58.859086,-34.904052],[-58.84527,-34.891708],[-58.893581,-34.854405],[-58.936187,-34.817828],[-58.951498,-34.831176],[-59.03373,-34.766925],[-59.029504,-34.761122],[-59.021767,-34.758254],[-59.003257,-34.763985],[-58.998289,-34.762792],[-58.990263,-34.754404],[-58.982076,-34.751388],[-58.966439,-34.739272],[-58.956629,-34.727545],[-58.952648,-34.71666],[-58.935344,-34.703731],[-58.92114,-34.699334],[-58.91344,-34.700948],[-58.912302,-34.69812],[-58.900705,-34.699047],[-58.888635,-34.696791],[-58.869878,-34.689678],[-58.863696,-34.683365],[-58.860294,-34.685206]]]}},{"type":"Feature","properties":{"nombre":"Ezeiza","region":"GBA","cordon":2,"enRed":true,"lat":-34.8751,"lon":-58.57387},"geometry":{"type":"Polygon","coordinates":[[[-58.52050663,-34.74105554],[-58.524458,-34.779966],[-58.514397,-34.797831],[-58.506584,-34.844551],[-58.502852,-34.854959],[-58.50411,-34.881357],[-58.510333,-34.901681],[-58.490155,-34.928838],[-58.531017,-34.964141],[-58.534276,-34.961535],[-58.55317002,-34.97627742],[-58.549198,-34.979818],[-58.55627102,-35.00704839],[-58.620151,-34.960741],[-58.599054,-34.942952],[-58.611706,-34.926653],[-58.610654,-34.92522],[-58.621343,-34.919918],[-58.628195,-34.919755],[-58.65033095,-34.89108746],[-58.646361,-34.888627],[-58.642796,-34.868848],[-58.63039,-34.853138],[-58.628657,-34.846571],[-58.62495,-34.84422],[-58.617747,-34.829137],[-58.615506,-34.818527],[-58.606595,-34.810707],[-58.599682,-34.811079],[-58.597376,-34.804671],[-58.594479,-34.805573],[-58.595904,-34.803686],[-58.587542,-34.792727],[-58.587936,-34.786576],[-58.584364,-34.782744],[-58.58634,-34.780372],[-58.580747,-34.776384],[-58.577794,-34.77825],[-58.572171,-34.775224],[-58.575208,-34.772757],[-58.574834,-34.768529],[-58.567596,-34.765754],[-58.568155,-34.758829],[-58.55656,-34.757136],[-58.551763,-34.750917],[-58.545882,-34.758892],[-58.537507,-34.756953],[-58.535743,-34.755157],[-58.538749,-34.746805],[-58.52050663,-34.74105554]]]}},{"type":"Feature","properties":{"nombre":"Florencio Varela","region":"GBA","cordon":2,"enRed":true,"lat":-34.88163,"lon":-58.25268},"geometry":{"type":"Polygon","coordinates":[[[-58.27163923,-34.76883216],[-58.252648,-34.790348],[-58.238496,-34.800408],[-58.199915,-34.813772],[-58.194871,-34.821746],[-58.179871,-34.866004],[-58.247414,-34.923592],[-58.21108465,-34.95178335],[-58.247645,-34.984136],[-58.245642,-34.987956],[-58.267771,-35.00065],[-58.277172,-35.009418],[-58.300786,-34.971682],[-58.288205,-34.965044],[-58.3163175,-34.92633101],[-58.29405919,-34.91531521],[-58.274607,-34.91706],[-58.280898,-34.907612],[-58.29718396,-34.89510739],[-58.31714796,-34.86815398],[-58.292471,-34.854868],[-58.332806,-34.805737],[-58.30977868,-34.79338736],[-58.304114,-34.801165],[-58.301134,-34.797762],[-58.298454,-34.783439],[-58.27163923,-34.76883216]]]}},{"type":"Feature","properties":{"nombre":"Navarro","region":"GBA","cordon":3,"enRed":false,"lat":-35.0408,"lon":-59.41429},"geometry":{"type":"Polygon","coordinates":[[[-59.1926162,-34.81154444],[-59.168089,-34.799421],[-59.16497066,-34.80347944],[-59.218728,-34.852572],[-59.155162,-34.901349],[-59.116263,-34.924286],[-59.087329,-34.945331],[-59.084835,-34.947229],[-59.08657361,-34.94865668],[-59.071107,-34.961328],[-59.13678867,-35.01681061],[-59.141331,-35.013367],[-59.221344,-35.085086],[-59.247686,-35.064788],[-59.251455,-35.098279],[-59.299162,-35.123451],[-59.30174971,-35.1201131],[-59.325346,-35.13209],[-59.321772,-35.136243],[-59.359178,-35.157875],[-59.55253259,-35.25494126],[-59.554034,-35.250889],[-59.551853,-35.247036],[-59.555232,-35.243241],[-59.549487,-35.238878],[-59.540143,-35.221288],[-59.549044,-35.213444],[-59.543009,-35.204349],[-59.562185,-35.189126],[-59.571883,-35.184912],[-59.575205,-35.177622],[-59.582272,-35.177764],[-59.587525,-35.187634],[-59.603454,-35.187642],[-59.612502,-35.196352],[-59.62107,-35.200559],[-59.632265,-35.197212],[-59.638726,-35.198993],[-59.644744,-35.208094],[-59.663883,-35.210011],[-59.666496,-35.221777],[-59.670413,-35.22315],[-59.69603,-35.214944],[-59.699119,-35.210947],[-59.705559,-35.217997],[-59.7213895,-35.22267573],[-59.725222,-35.216578],[-59.736539,-35.210486],[-59.746382,-35.195982],[-59.756347,-35.198554],[-59.761425,-35.197138],[-59.758988,-35.189119],[-59.764049,-35.181804],[-59.772766,-35.178572],[-59.775288,-35.173362],[-59.792305,-35.182687],[-59.798878,-35.18145],[-59.804783,-35.176593],[-59.815574,-35.179319],[-59.82224087,-35.17682392],[-59.703494,-35.075366],[-59.700579,-35.077569],[-59.605175,-34.997713],[-59.6353693,-34.95798701],[-59.408729,-34.842423],[-59.373171,-34.891129],[-59.316559,-34.842619],[-59.320538,-34.836852],[-59.289444,-34.821684],[-59.27871366,-34.83434871],[-59.204517,-34.796227],[-59.1926162,-34.81154444]]]}},{"type":"Feature","properties":{"nombre":"Cañuelas","region":"GBA","cordon":3,"enRed":true,"lat":-35.16242,"lon":-58.72188},"geometry":{"type":"Polygon","coordinates":[[[-58.65033095,-34.89108746],[-58.628195,-34.919755],[-58.621343,-34.919918],[-58.610654,-34.92522],[-58.611706,-34.926653],[-58.599054,-34.942952],[-58.620151,-34.960741],[-58.55426,-35.00914],[-58.554385,-35.011431],[-58.600439,-35.052424],[-58.582127,-35.068334],[-58.57932,-35.068346],[-58.577919,-35.151662],[-58.553768,-35.171271],[-58.55818654,-35.17444109],[-58.536956,-35.192203],[-58.53373,-35.190108],[-58.49575,-35.221122],[-58.4679703,-35.23842465],[-58.57165374,-35.32820439],[-58.52511136,-35.36657356],[-58.543695,-35.382178],[-58.541025,-35.384683],[-58.58209812,-35.42143667],[-58.663133,-35.354955],[-58.674154,-35.360382],[-58.7074337,-35.33509267],[-58.678324,-35.304472],[-58.746748,-35.252702],[-58.770771,-35.273978],[-58.811947,-35.242354],[-58.80858633,-35.23932001],[-58.894852,-35.176187],[-58.868975,-35.15357],[-58.934096,-35.103508],[-58.864032,-35.043612],[-58.838421,-35.01706],[-58.777483,-34.964965],[-58.791074,-34.955258],[-58.78652,-34.954267],[-58.765341,-34.958997],[-58.751073,-34.940748],[-58.738361,-34.93632],[-58.726934,-34.923747],[-58.702863,-34.916011],[-58.699354,-34.912942],[-58.685928,-34.911805],[-58.65033095,-34.89108746]]]}},{"type":"Feature","properties":{"nombre":"San Vicente","region":"GBA","cordon":3,"enRed":true,"lat":-35.0249,"lon":-58.4241},"geometry":{"type":"Polygon","coordinates":[[[-58.3163175,-34.92633101],[-58.288205,-34.965044],[-58.300786,-34.971682],[-58.277172,-35.009418],[-58.28839793,-35.01726513],[-58.236268,-35.058275],[-58.338844,-35.148527],[-58.35271,-35.137863],[-58.410697,-35.188431],[-58.414816,-35.185434],[-58.446903,-35.214031],[-58.443368,-35.217171],[-58.4679703,-35.23842465],[-58.49575,-35.221122],[-58.53373,-35.190108],[-58.536956,-35.192203],[-58.55818654,-35.17444109],[-58.553768,-35.171271],[-58.577919,-35.151662],[-58.57932,-35.068346],[-58.582127,-35.068334],[-58.600439,-35.052424],[-58.554385,-35.011431],[-58.55638673,-35.00749855],[-58.549198,-34.979818],[-58.55317002,-34.97627742],[-58.534276,-34.961535],[-58.531017,-34.964141],[-58.491914,-34.930168],[-58.463054,-34.951454],[-58.470264,-34.997669],[-58.468702,-35.011275],[-58.430381,-34.978061],[-58.421622,-34.981909],[-58.411961,-34.973464],[-58.408331,-34.97787],[-58.38986076,-34.96542024],[-58.394616,-34.958878],[-58.37762,-34.950493],[-58.378007,-34.955786],[-58.3163175,-34.92633101]]]}},{"type":"Feature","properties":{"nombre":"Quilmes","region":"GBA","cordon":2,"enRed":true,"lat":-34.75409,"lon":-58.28334},"geometry":{"type":"Polygon","coordinates":[[[-58.27963924,-34.67864155],[-58.23399492,-34.70283407],[-58.23015447,-34.70137784],[-58.23122522,-34.70567514],[-58.21125203,-34.71755341],[-58.19820307,-34.73564208],[-58.194645,-34.73569491],[-58.267461,-34.773646],[-58.27163923,-34.76883216],[-58.298454,-34.783439],[-58.301134,-34.797762],[-58.304114,-34.801165],[-58.346962,-34.739344],[-58.27963924,-34.67864155]]]}},{"type":"Feature","properties":{"nombre":"Ensenada","region":"GBA","cordon":3,"enRed":true,"lat":-34.85336,"lon":-57.96544},"geometry":{"type":"Polygon","coordinates":[[[-58.01631707,-34.78035691],[-58.00151206,-34.78681],[-57.97355244,-34.81529786],[-57.9597706,-34.82563424],[-57.94641707,-34.82955559],[-57.9473403,-34.83347694],[-57.94539866,-34.83090713],[-57.92671513,-34.83263938],[-57.89819015,-34.82809936],[-57.88044889,-34.82932717],[-57.87695297,-34.82772201],[-57.900545,-34.874856],[-57.93184514,-34.90346133],[-57.974604,-34.872367],[-57.984024,-34.880327],[-57.990868,-34.879684],[-57.999985,-34.872872],[-57.998542,-34.871571],[-58.083632,-34.835145],[-58.01631707,-34.78035691]]]}},{"type":"Feature","properties":{"nombre":"San Isidro","region":"GBA","cordon":1,"enRed":true,"lat":-34.4843,"lon":-58.53579},"geometry":{"type":"Polygon","coordinates":[[[-58.51415501,-34.44352587],[-58.51504043,-34.44699989],[-58.50465647,-34.44988856],[-58.50561301,-34.45252976],[-58.50075891,-34.46058186],[-58.49403455,-34.46390834],[-58.49189851,-34.47123994],[-58.48816276,-34.47210606],[-58.48206182,-34.47883993],[-58.47939957,-34.48976107],[-58.53123,-34.513086],[-58.553764,-34.530205],[-58.600303,-34.490354],[-58.577922,-34.476027],[-58.519475,-34.44852],[-58.516165,-34.443321],[-58.51415501,-34.44352587]]]}},{"type":"Feature","properties":{"nombre":"Berisso","region":"GBA","cordon":3,"enRed":true,"lat":-34.89825,"lon":-57.85219},"geometry":{"type":"Polygon","coordinates":[[[-57.86216342,-34.84109035],[-57.82463625,-34.86499053],[-57.81691728,-34.86703686],[-57.7867362,-34.89303961],[-57.75102525,-34.91493065],[-57.72127247,-34.92760842],[-57.7082235,-34.93034956],[-57.75235496,-34.97066293],[-57.770753,-34.95703],[-57.784592,-34.962631],[-57.803312,-34.964184],[-57.841773,-34.948898],[-57.86173,-34.937663],[-57.871914,-34.937652],[-57.895903,-34.930436],[-57.93184514,-34.90346133],[-57.900545,-34.874856],[-57.87695297,-34.82772201],[-57.87373881,-34.82615772],[-57.87082635,-34.83249661],[-57.86216342,-34.84109035]]]}},{"type":"Feature","properties":{"nombre":"Zárate","region":"GBA","cordon":3,"enRed":true,"lat":-33.99345,"lon":-59.1497},"geometry":{"type":"Polygon","coordinates":[[[-59.16809082,-33.80938721],[-59.15979004,-33.82397461],[-59.13861084,-33.84381103],[-59.13067627,-33.84771728],[-59.11260986,-33.84832764],[-59.06628418,-33.83288574],[-59.05548096,-33.83239746],[-59.0402832,-33.83642578],[-59.02881054,-33.84632468],[-59.02048243,-33.84894209],[-59.00144674,-33.84085192],[-58.99288068,-33.8418037],[-58.98740792,-33.84941798],[-58.98657226,-33.86077881],[-58.97789008,-33.87035723],[-58.95814055,-33.87511616],[-58.93359375,-33.87438965],[-58.89978027,-33.89099121],[-58.86843488,-33.93650625],[-58.85487195,-33.94721382],[-58.83720127,-33.95375109],[-58.838025,-33.956023],[-58.849531,-33.957611],[-58.93348,-33.957371],[-58.955005,-33.963954],[-58.96144,-33.963671],[-58.966046,-33.960581],[-59.000536,-34.087853],[-59.009521,-34.099071],[-59.00410818,-34.10321782],[-58.977497,-34.113277],[-58.972779,-34.119304],[-58.973315,-34.129096],[-59.102098,-34.197344],[-59.102904,-34.200122],[-59.238771,-34.179714],[-59.237161,-34.171812],[-59.31234,-34.161043],[-59.29887,-34.157882],[-59.283046,-34.14555],[-59.27956673,-34.14596677],[-59.279343,-34.140013],[-59.27494,-34.138169],[-59.272708,-34.13312],[-59.276169,-34.127232],[-59.272881,-34.123974],[-59.273734,-34.107744],[-59.268474,-34.101635],[-59.269254,-34.097846],[-59.266556,-34.096083],[-59.2662,-34.091783],[-59.26856,-34.084611],[-59.288477,-34.075619],[-59.293324,-34.069899],[-59.299519,-34.068954],[-59.297689,-34.066607],[-59.302504,-34.064062],[-59.301105,-34.044103],[-59.309671,-34.022532],[-59.308491,-34.019271],[-59.314521,-34.014789],[-59.314354,-34.005744],[-59.334559,-33.981153],[-59.331848,-33.979908],[-59.338662,-33.965398],[-59.338462,-33.9585],[-59.340877,-33.957517],[-59.340123,-33.954938],[-59.342663,-33.954914],[-59.34199993,-33.95320098],[-59.345587,-33.952398],[-59.342789,-33.952031],[-59.343219,-33.948879],[-59.341012,-33.948028],[-59.345909,-33.945097],[-59.34694234,-33.9409728],[-59.344134,-33.940032],[-59.347137,-33.935033],[-59.342068,-33.930764],[-59.340883,-33.92538],[-59.336535,-33.927101],[-59.332666,-33.925405],[-59.323587,-33.931175],[-59.314047,-33.924577],[-59.309814,-33.924122],[-59.297343,-33.931839],[-59.283352,-33.930288],[-59.271424,-33.932685],[-59.260541,-33.941577],[-59.258736,-33.941215],[-59.258281,-33.935457],[-59.252089,-33.930507],[-59.233408,-33.928006],[-59.22838,-33.925027],[-59.22775,-33.920111],[-59.240136,-33.896258],[-59.258308,-33.888294],[-59.271277,-33.872618],[-59.297518,-33.859156],[-59.302739,-33.852853],[-59.30209,-33.846625],[-59.29146,-33.834506],[-59.293022,-33.829253],[-59.276361,-33.820257],[-59.250997,-33.814787],[-59.21881103,-33.81469727],[-59.17797852,-33.80639648],[-59.16809082,-33.80938721]]]}},{"type":"Feature","properties":{"nombre":"Lanús","region":"GBA","cordon":1,"enRed":true,"lat":-34.70824,"lon":-58.39359},"geometry":{"type":"Polygon","coordinates":[[[-58.41272211,-34.65874663],[-58.40336437,-34.65975568],[-58.40253898,-34.65998679],[-58.406505,-34.663512],[-58.39482,-34.672483],[-58.397143,-34.674536],[-58.391937,-34.679815],[-58.379667,-34.689505],[-58.378162,-34.688277],[-58.333505,-34.726984],[-58.34731444,-34.7398401],[-58.356157,-34.74014],[-58.366679,-34.745552],[-58.371857,-34.74136],[-58.374902,-34.743067],[-58.386094,-34.737118],[-58.413453,-34.732627],[-58.44691544,-34.68877658],[-58.42385945,-34.66229951],[-58.41272211,-34.65874663]]]}},{"type":"Feature","properties":{"nombre":"Lomas de Zamora","region":"GBA","cordon":1,"enRed":true,"lat":-34.74998,"lon":-58.41018},"geometry":{"type":"Polygon","coordinates":[[[-58.44691544,-34.68877658],[-58.413269,-34.732865],[-58.386094,-34.737118],[-58.374902,-34.743067],[-58.371857,-34.74136],[-58.366679,-34.745552],[-58.356157,-34.74014],[-58.346962,-34.739344],[-58.33663877,-34.75440132],[-58.362003,-34.767389],[-58.358683,-34.771354],[-58.409954,-34.798587],[-58.405102,-34.804573],[-58.43052818,-34.81724804],[-58.50079713,-34.72299155],[-58.48390198,-34.73213577],[-58.48451615,-34.72756958],[-58.44691544,-34.68877658]]]}},{"type":"Feature","properties":{"nombre":"Avellaneda","region":"GBA","cordon":1,"enRed":true,"lat":-34.67969,"lon":-58.33639},"geometry":{"type":"Polygon","coordinates":[[[-58.3418874,-34.63109672],[-58.3331185,-34.63506226],[-58.33284725,-34.64472763],[-58.32760767,-34.64949607],[-58.30406529,-34.66561454],[-58.27963924,-34.67864155],[-58.333505,-34.726984],[-58.378162,-34.688277],[-58.379667,-34.689505],[-58.390921,-34.680729],[-58.397143,-34.674536],[-58.39482,-34.672483],[-58.406505,-34.663512],[-58.402825,-34.659977],[-58.39171919,-34.66260707],[-58.38527826,-34.65822731],[-58.3740517,-34.65719379],[-58.3683575,-34.65104578],[-58.35662404,-34.64463373],[-58.35764557,-34.64023672],[-58.35205384,-34.6354778],[-58.3418874,-34.63109672]]]}},{"type":"Feature","properties":{"nombre":"La Plata","region":"GBA","cordon":3,"enRed":true,"lat":-34.9207,"lon":-57.9538},"geometry":{"type":"MultiPolygon","coordinates":[[[[-57.999985,-34.872872],[-57.990868,-34.879684],[-57.984024,-34.880327],[-57.974604,-34.872367],[-57.895903,-34.930436],[-57.871914,-34.937652],[-57.86173,-34.937663],[-57.841773,-34.948898],[-57.803312,-34.964184],[-57.784592,-34.962631],[-57.770753,-34.95703],[-57.75235496,-34.97066293],[-58.054086,-35.236827],[-58.077531,-35.220003],[-58.018072,-35.168111],[-58.030576,-35.154197],[-58.101843,-35.101177],[-58.11005088,-35.10842829],[-58.1772513,-35.05715209],[-58.12038,-35.004379],[-58.161419,-34.971845],[-58.246487,-35.048357],[-58.28839793,-35.01726513],[-58.267771,-35.00065],[-58.245642,-34.987956],[-58.247645,-34.984136],[-58.203636,-34.945245],[-58.207968,-34.941983],[-58.147857,-34.887437],[-58.083632,-34.835145],[-57.998542,-34.871571],[-57.999985,-34.872872]]],[[[-58.25373097,-34.17671185],[-58.24318786,-34.17570775],[-58.24306235,-34.18694118],[-58.24563537,-34.18976522],[-58.2549861,-34.19045554],[-58.25826626,-34.18170596],[-58.25373097,-34.17671185]]]]}},{"type":"Feature","properties":{"nombre":"Agronomia","region":"CABA","cordon":0,"enRed":true,"lat":-34.59309,"lon":-58.48892,"comuna":15},"geometry":{"type":"Polygon","coordinates":[[[-58.475888981732986,-34.59172346127297],[-58.478830975396626,-34.599670676803555],[-58.48345568510112,-34.59775787307543],[-58.49717404878441,-34.59681727062278],[-58.50354247156215,-34.594450087269095],[-58.48879296797189,-34.58481833067386],[-58.48470997419255,-34.589118979857325],[-58.475888981732986,-34.59172346127297]]]}},{"type":"Feature","properties":{"nombre":"Almagro","region":"CABA","cordon":0,"enRed":true,"lat":-34.61115,"lon":-58.42204,"comuna":5},"geometry":{"type":"Polygon","coordinates":[[[-58.42678711058436,-34.59794377932439],[-58.41192135079324,-34.598002513125124],[-58.41466233341757,-34.60818928106414],[-58.41287241688504,-34.61411532510316],[-58.41254621209938,-34.62064125796152],[-58.42779700513828,-34.62207349731024],[-58.42925416719749,-34.61510481203766],[-58.430030191312774,-34.615448341011856],[-58.4306708058851,-34.60594070754166],[-58.43333569456547,-34.60267289159709],[-58.42678711058436,-34.59794377932439]]]}},{"type":"Feature","properties":{"nombre":"Balvanera","region":"CABA","cordon":0,"enRed":true,"lat":-34.61115,"lon":-58.40297,"comuna":3},"geometry":{"type":"Polygon","coordinates":[[[-58.392934155259674,-34.599636447011676],[-58.39170023853983,-34.61815809782679],[-58.403515598253875,-34.618839186391725],[-58.41254621209938,-34.62064125796152],[-58.41287241688504,-34.61411532510316],[-58.41466233341757,-34.60818928106414],[-58.41192135079324,-34.598002513125124],[-58.40450953777523,-34.598035364788565],[-58.39872608482409,-34.59975965141003],[-58.392934155259674,-34.599636447011676]]]}},{"type":"Feature","properties":{"nombre":"Barracas","region":"CABA","cordon":0,"enRed":true,"lat":-34.64457,"lon":-58.38276,"comuna":4},"geometry":{"type":"Polygon","coordinates":[[[-58.37096755027157,-34.626645743214],[-58.36765263820719,-34.65013597842769],[-58.36966067200548,-34.65133225278176],[-58.369790879891525,-34.65357666323475],[-58.374122731938364,-34.65676294490401],[-58.38517764848068,-34.65784473021596],[-58.38771885662638,-34.66015911719315],[-58.392472648634154,-34.66218969301208],[-58.39713344146437,-34.661998138119216],[-58.40076128478946,-34.66047114985293],[-58.405047460431575,-34.649796496181864],[-58.4027485445314,-34.64705860256282],[-58.391403265870984,-34.642084577801526],[-58.391474307871505,-34.64082489072789],[-58.38988464830769,-34.640203868059906],[-58.390355791630974,-34.63412289815406],[-58.38133612831495,-34.630843690429835],[-58.38125376897629,-34.633068579260076],[-58.38014691234468,-34.63303023065702],[-58.378624945266196,-34.63049753656124],[-58.379048013153934,-34.62933204317676],[-58.374564447960466,-34.626797991498485],[-58.37096755027157,-34.626645743214]]]}},{"type":"Feature","properties":{"nombre":"Belgrano","region":"CABA","cordon":0,"enRed":true,"lat":-34.5535,"lon":-58.44652,"comuna":13},"geometry":{"type":"Polygon","coordinates":[[[-58.45056826999142,-34.53561148039699],[-58.45407063367284,-34.536534067471926],[-58.45483498999615,-34.53744089565699],[-58.4542319901572,-34.538670918982895],[-58.452169233553505,-34.5395584961708],[-58.44906595675364,-34.53555420341016],[-58.44856680029354,-34.537395012374375],[-58.44638323437893,-34.53600394806351],[-58.44386250374876,-34.53613914733818],[-58.44158307794483,-34.537620776680996],[-58.44078333659167,-34.54029902104568],[-58.44025597615365,-34.539203450955355],[-58.43923582081999,-34.5401306747633],[-58.43755925657843,-34.53979671673535],[-58.43420184204671,-34.54186026561932],[-58.434737166823474,-34.542437741450094],[-58.43133827517466,-34.54477950143541],[-58.430727576559775,-34.547326722067595],[-58.42986435059588,-34.547317286946075],[-58.430771193190594,-34.54774240119448],[-58.42947344521872,-34.548874903721234],[-58.42677912857924,-34.548163503229176],[-58.42512880522833,-34.548965328900096],[-58.426671158304956,-34.55200476442891],[-58.430985962439756,-34.55111931660614],[-58.43442501622185,-34.55305051038021],[-58.43411254697535,-34.553957850910706],[-58.4410601303577,-34.55789680191358],[-58.44032948007963,-34.56055630348267],[-58.437981893837694,-34.561757203231195],[-58.434959664276725,-34.5617925961818],[-58.43540425079502,-34.56253739443525],[-58.44116399115406,-34.56213431574575],[-58.44904557672131,-34.567854126775565],[-58.45228856583615,-34.56610865086722],[-58.45762883839621,-34.56899837147108],[-58.463356084528215,-34.57500862462703],[-58.46736465688151,-34.57249646466105],[-58.46808161545893,-34.57290912346318],[-58.47336864041901,-34.56666198337174],[-58.46649067578094,-34.562190782154325],[-58.46768437334069,-34.56168791769561],[-58.46703765691498,-34.56131567731022],[-58.469184603029774,-34.558929131341685],[-58.45300745409709,-34.5505047725618],[-58.45412227689978,-34.54898552924004],[-58.44927600140255,-34.542653223485715],[-58.45944361205409,-34.53779983037265],[-58.453864272613565,-34.53503928903776],[-58.45173906439315,-34.53169494101927],[-58.450125246229476,-34.53444903489413],[-58.45056826999142,-34.53561148039699]]]}},{"type":"Feature","properties":{"nombre":"La Boca","region":"CABA","cordon":0,"enRed":true,"lat":-34.63504,"lon":-58.36165,"comuna":4},"geometry":{"type":"Polygon","coordinates":[[[-58.35514438481885,-34.61954911372079],[-58.34460007813494,-34.61899753685804],[-58.347155529905784,-34.619987907579876],[-58.34593731941207,-34.62295412064516],[-58.34548431775222,-34.621521021710436],[-58.344062296385054,-34.6217572494442],[-58.34340961388704,-34.61870924102148],[-58.33859225475961,-34.618637664126965],[-58.33721550057646,-34.62252376101327],[-58.34303639507366,-34.622708736970004],[-58.337026521621304,-34.62488441936933],[-58.33515753883406,-34.62709332365484],[-58.3392827775983,-34.62889139774801],[-58.34245022446974,-34.62616781663154],[-58.3442763774962,-34.626372933319445],[-58.341404555988035,-34.62889208982821],[-58.34251297514685,-34.62945410578915],[-58.34705415495068,-34.62728051938064],[-58.348788662154874,-34.629082251414154],[-58.347930611833526,-34.631151867769574],[-58.346101952378305,-34.63165790436418],[-58.349067370222606,-34.632546472160094],[-58.351143018564095,-34.6313541628393],[-58.35238646091729,-34.62900927823582],[-58.36177152550575,-34.62363755298872],[-58.354892180156774,-34.629002476253156],[-58.35276505471395,-34.63356115779266],[-58.3541423847983,-34.63651592063415],[-58.35803097150169,-34.63920008162741],[-58.36144290902392,-34.639865401672814],[-58.358129533076195,-34.641866994789424],[-58.35760242573314,-34.64497800893551],[-58.36239789638526,-34.648143634701604],[-58.36433742002084,-34.64822185430546],[-58.36765263820719,-34.65013597842769],[-58.37066205776171,-34.62949214687238],[-58.367949320415974,-34.62714096158314],[-58.36797540080503,-34.62519405941959],[-58.36319994731257,-34.625133871975834],[-58.3560150331133,-34.617605193319726],[-58.35514438481885,-34.61954911372079]]]}},{"type":"Feature","properties":{"nombre":"Boedo","region":"CABA","cordon":0,"enRed":true,"lat":-34.62865,"lon":-58.41883,"comuna":5},"geometry":{"type":"Polygon","coordinates":[[[-58.41254621209938,-34.62064125796152],[-58.41049088824923,-34.635236106315496],[-58.411262723155346,-34.6380978732945],[-58.42349363422859,-34.640198905843164],[-58.42779700513828,-34.62207349731024],[-58.41254621209938,-34.62064125796152]]]}},{"type":"Feature","properties":{"nombre":"Caballito","region":"CABA","cordon":0,"enRed":true,"lat":-34.62122,"lon":-58.44203,"comuna":6},"geometry":{"type":"Polygon","coordinates":[[[-58.42925416719749,-34.61510481203766],[-58.426757521956766,-34.62699733183001],[-58.45157701005284,-34.63063798537047],[-58.46270496534183,-34.607372483490124],[-58.45847445751883,-34.604491361389265],[-58.446248450324816,-34.60761502962948],[-58.43920297270115,-34.60558226113534],[-58.43333569456547,-34.60267289159709],[-58.4306708058851,-34.60594070754166],[-58.430030191312774,-34.615448341011856],[-58.42925416719749,-34.61510481203766]]]}},{"type":"Feature","properties":{"nombre":"Chacarita","region":"CABA","cordon":0,"enRed":true,"lat":-34.5871,"lon":-58.45164,"comuna":15},"geometry":{"type":"Polygon","coordinates":[[[-58.460225480429045,-34.57829541024887],[-58.455400123469126,-34.5790705599863],[-58.44440105459202,-34.58319175407476],[-58.444786905746156,-34.58451345619079],[-58.43853723603448,-34.58866748031371],[-58.45060151858367,-34.59439866031657],[-58.4554847874932,-34.597834414716935],[-58.45927593582843,-34.59667718518014],[-58.46562039631953,-34.59670403598512],[-58.46438215397286,-34.59255133417007],[-58.466828452112026,-34.59059296655635],[-58.46037938968775,-34.585527642716876],[-58.460225480429045,-34.57829541024887]]]}},{"type":"Feature","properties":{"nombre":"Coghlan","region":"CABA","cordon":0,"enRed":true,"lat":-34.56021,"lon":-58.47537,"comuna":12},"geometry":{"type":"Polygon","coordinates":[[[-58.47358640594865,-34.553534561776345],[-58.46703765691498,-34.56131567731022],[-58.46768437334069,-34.56168791769561],[-58.46649067578094,-34.562190782154325],[-58.47298866816649,-34.56643597938784],[-58.47619024101399,-34.56684960886245],[-58.48115760193532,-34.56250024994812],[-58.483559505311746,-34.55910499063182],[-58.47358640594865,-34.553534561776345]]]}},{"type":"Feature","properties":{"nombre":"Colegiales","region":"CABA","cordon":0,"enRed":true,"lat":-34.57356,"lon":-58.45208,"comuna":13},"geometry":{"type":"Polygon","coordinates":[[[-58.45228856583615,-34.56610865086722],[-58.4407460254189,-34.57210641340086],[-58.44397304158991,-34.57536442527224],[-58.43994036789567,-34.57854695143388],[-58.44444984927909,-34.583170774645055],[-58.455400123469126,-34.5790705599863],[-58.460225480429045,-34.57829541024887],[-58.463356084528215,-34.57500862462703],[-58.45762883839621,-34.56899837147108],[-58.45228856583615,-34.56610865086722]]]}},{"type":"Feature","properties":{"nombre":"Constitucion","region":"CABA","cordon":0,"enRed":true,"lat":-34.62545,"lon":-58.3837,"comuna":1},"geometry":{"type":"Polygon","coordinates":[[[-58.375576767291435,-34.627300208745076],[-58.379048013153934,-34.62933204317676],[-58.3786249452662,-34.63049753656124],[-58.38014691234469,-34.63303023065702],[-58.38125376897631,-34.633068579260076],[-58.381336128314956,-34.630843690429835],[-58.390355791630974,-34.63412289815406],[-58.39170023853983,-34.61815809782679],[-58.377361822005625,-34.617451154513105],[-58.377069080134824,-34.62359918927194],[-58.375576767291435,-34.627300208745076]]]}},{"type":"Feature","properties":{"nombre":"Flores","region":"CABA","cordon":0,"enRed":true,"lat":-34.63448,"lon":-58.46263,"comuna":7},"geometry":{"type":"Polygon","coordinates":[[[-58.45157701005284,-34.63063798537047],[-58.45437858834591,-34.631499428058206],[-58.45144159946871,-34.63746564570358],[-58.444244901531356,-34.642805415371775],[-58.443078903412065,-34.64177634489299],[-58.437423406804726,-34.64735081496473],[-58.43492431737574,-34.64623532079116],[-58.43043127543189,-34.64987267055455],[-58.43800651817509,-34.65580173412598],[-58.444620975930334,-34.65094645244666],[-58.45463659951399,-34.65082151787914],[-58.45506211015045,-34.652297754724096],[-58.4604019463092,-34.65680478910476],[-58.46542661179713,-34.65289492041265],[-58.46703346205427,-34.651466743432806],[-58.462999049663715,-34.64616878549407],[-58.469242142957555,-34.641395620155485],[-58.477806822511084,-34.62238350934658],[-58.45944878550957,-34.61388497915074],[-58.45157701005284,-34.63063798537047]]]}},{"type":"Feature","properties":{"nombre":"Floresta","region":"CABA","cordon":0,"enRed":true,"lat":-34.63064,"lon":-58.48028,"comuna":10},"geometry":{"type":"Polygon","coordinates":[[[-58.477806822511084,-34.62238350934658],[-58.4713026747026,-34.63665405069405],[-58.476071872690405,-34.638933524216625],[-58.498199616146344,-34.62136986045718],[-58.49263538804758,-34.61672774712987],[-58.48274200456544,-34.62462904597239],[-58.477806822511084,-34.62238350934658]]]}},{"type":"Feature","properties":{"nombre":"Liniers","region":"CABA","cordon":0,"enRed":true,"lat":-34.64291,"lon":-58.51797,"comuna":9},"geometry":{"type":"Polygon","coordinates":[[[-58.514862001736276,-34.63320222411433],[-58.50567057466037,-34.636716898778765],[-58.510507726882075,-34.637369931427756],[-58.5098203426521,-34.64000730247518],[-58.502297877323464,-34.645816960135065],[-58.525770946336735,-34.656890461676504],[-58.52920585506472,-34.65429777056204],[-58.53035633098099,-34.634794524044736],[-58.52068541582892,-34.63382022473288],[-58.5202386965446,-34.63279640775087],[-58.514862001736276,-34.63320222411433]]]}},{"type":"Feature","properties":{"nombre":"Mataderos","region":"CABA","cordon":0,"enRed":true,"lat":-34.66014,"lon":-58.50193,"comuna":9},"geometry":{"type":"Polygon","coordinates":[[[-58.49713623482311,-34.64340827079344],[-58.478817104542586,-34.65784285635586],[-58.48594426126526,-34.66244648479715],[-58.48895123101557,-34.66334673893835],[-58.49703833366884,-34.67117853618102],[-58.50252408287417,-34.67450672779367],[-58.525770946336735,-34.656890461676504],[-58.49713623482311,-34.64340827079344]]]}},{"type":"Feature","properties":{"nombre":"Monserrat","region":"CABA","cordon":0,"enRed":true,"lat":-34.61246,"lon":-58.37948,"comuna":1},"geometry":{"type":"Polygon","coordinates":[[[-58.367730325281116,-34.60690013756053],[-58.36673878688551,-34.615623960929824],[-58.37742920207797,-34.61629231438768],[-58.377361822005625,-34.617451154513105],[-58.39170023853983,-34.61815809782679],[-58.39195494062207,-34.609291230043844],[-58.37155456011708,-34.60788336030702],[-58.37019470302866,-34.60657293598582],[-58.367730325281116,-34.60690013756053]]]}},{"type":"Feature","properties":{"nombre":"Monte Castro","region":"CABA","cordon":0,"enRed":true,"lat":-34.6205,"lon":-58.5075,"comuna":10},"geometry":{"type":"Polygon","coordinates":[[[-58.50019122572415,-34.60912538295531],[-58.49263538804758,-34.61672774712987],[-58.507292045464304,-34.6275936108545],[-58.51164969614588,-34.62427798100962],[-58.51638019900406,-34.628449581519426],[-58.52163441756833,-34.624404461082804],[-58.5130448564516,-34.61673120278661],[-58.50019122572415,-34.60912538295531]]]}},{"type":"Feature","properties":{"nombre":"Nueva Pompeya","region":"CABA","cordon":0,"enRed":true,"lat":-34.65149,"lon":-58.41841,"comuna":4},"geometry":{"type":"Polygon","coordinates":[[[-58.4027485445314,-34.64705860256282],[-58.405047460431575,-34.649796496181864],[-58.40105300767334,-34.65998870387118],[-58.40308172205356,-34.659344634526555],[-58.40723105334378,-34.6599991482355],[-58.41325072417609,-34.658412976914015],[-58.42404270851403,-34.662045942218505],[-58.42674711842803,-34.65867224268133],[-58.434434695354646,-34.65311140535304],[-58.43043127543189,-34.64987267055455],[-58.43492431737573,-34.646235320791156],[-58.43210889040573,-34.64516215950781],[-58.43234577055287,-34.64173979675251],[-58.43092505280724,-34.64144315849764],[-58.41126272315533,-34.63809787329449],[-58.41343860009866,-34.64345361777711],[-58.41210271076327,-34.64858116385934],[-58.4027485445314,-34.64705860256282]]]}},{"type":"Feature","properties":{"nombre":"Nuñez","region":"CABA","cordon":0,"enRed":true,"lat":-34.5458,"lon":-58.46112,"comuna":13},"geometry":{"type":"Polygon","coordinates":[[[-58.45496530150479,-34.53527066850672],[-58.45944361205409,-34.53779983037265],[-58.458285165780204,-34.53859868209637],[-58.44927600140255,-34.542653223485715],[-58.45412227689978,-34.54898552924004],[-58.45300745409709,-34.5505047725618],[-58.469184603029774,-34.558929131341685],[-58.47443615396892,-34.55242171493999],[-58.46818978417501,-34.5489408453672],[-58.475953367506534,-34.53863169433352],[-58.463796415661704,-34.53326205157717],[-58.45925262813209,-34.527146237868486],[-58.45752369444122,-34.526499948806645],[-58.4515409174362,-34.530423073571214],[-58.45496530150479,-34.53527066850672]]]}},{"type":"Feature","properties":{"nombre":"Palermo","region":"CABA","cordon":0,"enRed":true,"lat":-34.57319,"lon":-58.42181,"comuna":14},"geometry":{"type":"Polygon","coordinates":[[[-58.42419938910539,-34.54925889647248],[-58.42570336058966,-34.552157935930694],[-58.41568194894896,-34.554900531330894],[-58.411142122644584,-34.55735281188863],[-58.40952107633978,-34.55662292848747],[-58.41019933390958,-34.55806784052561],[-58.40390958079111,-34.56347903556862],[-58.39878857991421,-34.560747490102486],[-58.40394952399896,-34.56356869296611],[-58.40111626139115,-34.56333247697128],[-58.40071234634874,-34.56430028847821],[-58.399209997160334,-34.56365976762506],[-58.39703861577209,-34.56500090430843],[-58.396877694087,-34.565828527319105],[-58.40018964787539,-34.56901195798409],[-58.396982163943555,-34.56666906769049],[-58.3928428574819,-34.57223283913158],[-58.395209226839555,-34.572190634170965],[-58.400129902870184,-34.56934893542603],[-58.399719001962076,-34.570806944773224],[-58.40264950240405,-34.57414030800595],[-58.39656301741277,-34.578506532006564],[-58.400546813455705,-34.58447154384036],[-58.401946151163166,-34.58342610962861],[-58.40617524845625,-34.583459008195],[-58.41439610689951,-34.59405360737738],[-58.416002854915654,-34.59785423156421],[-58.42336928246166,-34.597747393890565],[-58.426952144276854,-34.59621006886467],[-58.444786905746156,-34.58451345619079],[-58.44343300417142,-34.58179699662261],[-58.43994036789567,-34.57854695143388],[-58.44397304158991,-34.57536442527224],[-58.4407460254189,-34.57210641340086],[-58.44904557672131,-34.567854126775565],[-58.44116399115406,-34.56213431574575],[-58.43486030742138,-34.56208955126353],[-58.43924240064076,-34.561286461921135],[-58.44138709672293,-34.55881638855434],[-58.4401606130103,-34.55710450422125],[-58.43411254697535,-34.553957850910706],[-58.43442501622185,-34.55305051038021],[-58.42976102243832,-34.550936636967236],[-58.42573821241415,-34.55214265120144],[-58.42426856423065,-34.54926893529406],[-58.42419938910539,-34.54925889647248]]]}},{"type":"Feature","properties":{"nombre":"Parque Avellaneda","region":"CABA","cordon":0,"enRed":true,"lat":-34.64882,"lon":-58.47763,"comuna":9},"geometry":{"type":"Polygon","coordinates":[[[-58.4604019463092,-34.65680478910476],[-58.46443016485797,-34.660047667910746],[-58.46765506665677,-34.65751381963162],[-58.46955563649736,-34.65910372270439],[-58.470570200581356,-34.65842521017464],[-58.47251483788219,-34.6627710579967],[-58.49530087366283,-34.64484673634239],[-58.47854500370256,-34.6369931522877],[-58.476071872690405,-34.638933524216625],[-58.4713026747026,-34.63665405069405],[-58.469242142957555,-34.641395620155485],[-58.462999049663715,-34.64616878549407],[-58.46703346205427,-34.651466743432806],[-58.4604019463092,-34.65680478910476]]]}},{"type":"Feature","properties":{"nombre":"Parque Chacabuco","region":"CABA","cordon":0,"enRed":true,"lat":-34.63448,"lon":-58.43891,"comuna":7},"geometry":{"type":"Polygon","coordinates":[[[-58.42349363422859,-34.640198905843164],[-58.43234577055287,-34.64173979675251],[-58.43210889040574,-34.64516215950781],[-58.437423406804726,-34.64735081496473],[-58.443078903412065,-34.64177634489299],[-58.444244901531356,-34.642805415371775],[-58.45144159946871,-34.63746564570358],[-58.45437858834591,-34.631499428058206],[-58.426757521956766,-34.62699733183001],[-58.42349363422859,-34.640198905843164]]]}},{"type":"Feature","properties":{"nombre":"Parque Chas","region":"CABA","cordon":0,"enRed":true,"lat":-34.58613,"lon":-58.4795,"comuna":15},"geometry":{"type":"Polygon","coordinates":[[[-58.470815403202614,-34.58744528002174],[-58.475888981732986,-34.59172346127297],[-58.48470997419255,-34.589118979857325],[-58.48879296797189,-34.58481833067386],[-58.478987903717254,-34.57912516128533],[-58.4754240927251,-34.579958470061214],[-58.473570810003736,-34.58176508198145],[-58.470815403202614,-34.58744528002174]]]}},{"type":"Feature","properties":{"nombre":"Parque Patricios","region":"CABA","cordon":0,"enRed":true,"lat":-34.63796,"lon":-58.40074,"comuna":4},"geometry":{"type":"Polygon","coordinates":[[[-58.39117300822635,-34.627251694414575],[-58.38988464830769,-34.640203868059906],[-58.39147430787152,-34.6408248907279],[-58.391403265871,-34.64208457780153],[-58.40108638187169,-34.646729332526],[-58.41210271076327,-34.64858116385935],[-58.41343860009867,-34.64345361777711],[-58.41051427535669,-34.63570802179153],[-58.411781630067345,-34.630354566952114],[-58.39117300822635,-34.627251694414575]]]}},{"type":"Feature","properties":{"nombre":"Paternal","region":"CABA","cordon":0,"enRed":true,"lat":-34.59461,"lon":-58.47097,"comuna":15},"geometry":{"type":"Polygon","coordinates":[[[-58.470815403202614,-34.58744528002174],[-58.46438215397286,-34.59255133417007],[-58.46562039631953,-34.59670403598512],[-58.45927593582843,-34.59667718518014],[-58.45623704827498,-34.597589737806764],[-58.45816345957501,-34.60382866301159],[-58.45893531425453,-34.60437320865605],[-58.468912371012124,-34.60186002103897],[-58.474016507698096,-34.60531071658645],[-58.477498519956974,-34.600824801348786],[-58.476392120151935,-34.60019927934834],[-58.478830975396626,-34.599670676803555],[-58.47572404205331,-34.591307445888475],[-58.470815403202614,-34.58744528002174]]]}},{"type":"Feature","properties":{"nombre":"Puerto Madero","region":"CABA","cordon":0,"enRed":true,"lat":-34.60868,"lon":-58.35377,"comuna":1},"geometry":{"type":"Polygon","coordinates":[[[-58.34997250310856,-34.6187160371918],[-58.35514438481885,-34.61954911372079],[-58.3560150331133,-34.617605193319726],[-58.36319994731257,-34.625133871975834],[-58.365790146703,-34.623985981079855],[-58.36839384376343,-34.601028722325495],[-58.36951667431043,-34.59832050162794],[-58.363238235881205,-34.59806061503336],[-58.363450548227746,-34.597124786247505],[-58.35925627737534,-34.595243520801446],[-58.355935938349766,-34.59511989368158],[-58.346823201127684,-34.60233301731868],[-58.34587934254929,-34.60670368806815],[-58.34086607473434,-34.610662651314854],[-58.33987590209301,-34.616094020892625],[-58.34502602227922,-34.61754085894042],[-58.34907093855778,-34.61682698273352],[-58.350270347347305,-34.617229333357685],[-58.350814609014606,-34.61817062421488],[-58.34997250310856,-34.6187160371918]],[[-58.363077111688995,-34.61821258416468],[-58.36480675395409,-34.61834099385995],[-58.36425945292164,-34.623406804329015],[-58.36204765831117,-34.62371467710508],[-58.363077111688995,-34.61821258416468]],[[-58.363736621228824,-34.6123784372467],[-58.3654745732804,-34.61252842066294],[-58.3648953470823,-34.61756382645796],[-58.3638870994273,-34.61784082463744],[-58.36316274346068,-34.61743238591542],[-58.363736621228824,-34.6123784372467]],[[-58.364530343342004,-34.6054609789835],[-58.36626462910529,-34.60560079461298],[-58.36556418769714,-34.6117314991148],[-58.3645475816453,-34.611997583795144],[-58.36382057464245,-34.611593788796945],[-58.364530343342004,-34.6054609789835]],[[-58.36525075703779,-34.59915847188494],[-58.36698449498357,-34.59930064941544],[-58.366344125463,-34.60488010483253],[-58.36533599721182,-34.60508711863934],[-58.36461425583663,-34.60472715298198],[-58.36525075703779,-34.59915847188494]]]}},{"type":"Feature","properties":{"nombre":"Recoleta","region":"CABA","cordon":0,"enRed":true,"lat":-34.58401,"lon":-58.39341,"comuna":2},"geometry":{"type":"Polygon","coordinates":[[[-58.37074421042678,-34.57662113840418],[-58.37671508480352,-34.57754499115924],[-58.37397599843863,-34.57910198554978],[-58.37512570462363,-34.580519726554755],[-58.379840288175615,-34.58016159795671],[-58.38323429826815,-34.57831432998808],[-58.3865841087671,-34.578114497219175],[-58.38986816390465,-34.57820143234217],[-58.39164816084745,-34.580830718193255],[-58.386967269050764,-34.583551043410125],[-58.38368970166988,-34.58749988142484],[-58.38795355109652,-34.591647711499725],[-58.38686702602149,-34.599292158104205],[-58.39872608482409,-34.59975965141003],[-58.40450953777523,-34.598035364788565],[-58.416002854915654,-34.59785423156421],[-58.41439610689951,-34.59405360737738],[-58.40617524845625,-34.583459008195],[-58.401946151163166,-34.58342610962861],[-58.400546813455705,-34.58447154384036],[-58.39656301741277,-34.578506532006564],[-58.40264950240405,-34.57414030800595],[-58.399719001962076,-34.570806944773224],[-58.400129902870184,-34.56934893542603],[-58.395209226839555,-34.572190634170965],[-58.392987560832395,-34.57197600884235],[-58.385313590603594,-34.57630390176088],[-58.382822209809994,-34.57543485065994],[-58.391048396628086,-34.57007136831849],[-58.3831179020332,-34.56837724309389],[-58.38105155885368,-34.56852838615416],[-58.380356766100945,-34.570097616314044],[-58.38039923810708,-34.56860405867063],[-58.38008476275706,-34.56827207906683],[-58.38002905279391,-34.57036697292327],[-58.37907803562631,-34.57029713327778],[-58.37860753246406,-34.570416694767985],[-58.37110518112479,-34.57483453534087],[-58.37899312116867,-34.57038588049819],[-58.38050576167783,-34.57103796390014],[-58.37830213561797,-34.5727545940158],[-58.38360401229327,-34.57321682449751],[-58.38181563954335,-34.5744100855406],[-58.37544274343401,-34.57392503446648],[-58.37074421042678,-34.57662113840418]]]}},{"type":"Feature","properties":{"nombre":"Retiro","region":"CABA","cordon":0,"enRed":true,"lat":-34.58904,"lon":-58.3745,"comuna":1},"geometry":{"type":"Polygon","coordinates":[[[-58.35648775960019,-34.5950288034741],[-58.363450548227746,-34.597124786247505],[-58.363238235881205,-34.59806061503336],[-58.38686702602149,-34.599292158104205],[-58.38795355109652,-34.591647711499725],[-58.38368970166988,-34.58749988142484],[-58.386967269050764,-34.583551043410125],[-58.39164816084745,-34.580830718193255],[-58.38986816390465,-34.57820143234217],[-58.383575114138985,-34.57823504465598],[-58.379840288175615,-34.58016159795671],[-58.37512570462363,-34.580519726554755],[-58.37397599843863,-34.57910198554978],[-58.37671508480352,-34.57754499115924],[-58.37428771558157,-34.57870387167255],[-58.367933032379014,-34.57821035160685],[-58.36525027914304,-34.58015038780963],[-58.37060134183502,-34.580786423038575],[-58.36897411367041,-34.58172822261287],[-58.361623853512704,-34.581146683473726],[-58.36141658271213,-34.582963234606865],[-58.366147336299306,-34.583558051530716],[-58.36494534813089,-34.584498846499145],[-58.35991924799046,-34.58411765112379],[-58.359727929396676,-34.585918366738206],[-58.363647463867004,-34.58624026547735],[-58.36352636058767,-34.587457014926365],[-58.35960644866767,-34.58718366538188],[-58.359460775811456,-34.588079281822985],[-58.367995745602514,-34.59000767863709],[-58.36437074727813,-34.59426412195357],[-58.36708822715147,-34.59139795748975],[-58.366387546254806,-34.59298471281077],[-58.36787382340129,-34.59195308123411],[-58.36715267879601,-34.59330239630191],[-58.369082480780385,-34.59415592649677],[-58.367912355981495,-34.59747287656901],[-58.36609273374238,-34.59820283573918],[-58.36615856764605,-34.59738312928768],[-58.363834391148345,-34.597197139605356],[-58.36410451423006,-34.59531065236138],[-58.36342057338196,-34.596658589298244],[-58.360060096951656,-34.59499283818719],[-58.354148001193785,-34.594663760635655],[-58.35093997957504,-34.59518553733255],[-58.35648775960019,-34.5950288034741]]]}},{"type":"Feature","properties":{"nombre":"Saavedra","region":"CABA","cordon":0,"enRed":true,"lat":-34.55742,"lon":-58.49264,"comuna":12},"geometry":{"type":"Polygon","coordinates":[[[-58.47358640594865,-34.553534561776345],[-58.49099072609857,-34.562651285156306],[-58.49192955052844,-34.56130230683649],[-58.50903928153951,-34.56999772755386],[-58.50987410162941,-34.5692656506823],[-58.50055047863816,-34.54949022204843],[-58.475953367506534,-34.53863169433352],[-58.46818978417501,-34.5489408453672],[-58.47443615396892,-34.55242171493999],[-58.47358640594865,-34.553534561776345]]]}},{"type":"Feature","properties":{"nombre":"San Cristobal","region":"CABA","cordon":0,"enRed":true,"lat":-34.62395,"lon":-58.40183,"comuna":3},"geometry":{"type":"Polygon","coordinates":[[[-58.39117300822635,-34.627251694414575],[-58.411781630067345,-34.630354566952114],[-58.41254621209938,-34.62064125796152],[-58.403515598253875,-34.618839186391725],[-58.39170023853983,-34.61815809782679],[-58.39117300822635,-34.627251694414575]]]}},{"type":"Feature","properties":{"nombre":"San Nicolas","region":"CABA","cordon":0,"enRed":true,"lat":-34.6031,"lon":-58.38055,"comuna":1},"geometry":{"type":"Polygon","coordinates":[[[-58.367730325281116,-34.60690013756053],[-58.37019470302866,-34.60657293598582],[-58.37155456011708,-34.60788336030702],[-58.39195494062207,-34.609291230043844],[-58.392934155259674,-34.599636447011676],[-58.36951667431043,-34.59832050162794],[-58.367730325281116,-34.60690013756053]]]}},{"type":"Feature","properties":{"nombre":"San Telmo","region":"CABA","cordon":0,"enRed":true,"lat":-34.61995,"lon":-58.37175,"comuna":1},"geometry":{"type":"Polygon","coordinates":[[[-58.363459376540995,-34.62511995396086],[-58.36797540080503,-34.62519405941959],[-58.367949320415974,-34.62714096158314],[-58.37066205776171,-34.62949214687238],[-58.37096755027157,-34.626645743214],[-58.375576767291435,-34.627300208745076],[-58.377069080134824,-34.62359918927194],[-58.37742920207797,-34.61629231438768],[-58.36673878688551,-34.615623960929824],[-58.365790146703,-34.623985981079855],[-58.363459376540995,-34.62511995396086]]]}},{"type":"Feature","properties":{"nombre":"Velez Sarsfield","region":"CABA","cordon":0,"enRed":true,"lat":-34.63205,"lon":-58.49248,"comuna":10},"geometry":{"type":"Polygon","coordinates":[[[-58.47854500370256,-34.6369931522877],[-58.487804627876955,-34.64129879494689],[-58.49311505312084,-34.636512357317045],[-58.507292045464304,-34.6275936108545],[-58.50349055484331,-34.62403171427341],[-58.498199616146344,-34.62136986045718],[-58.47854500370256,-34.6369931522877]]]}},{"type":"Feature","properties":{"nombre":"Versalles","region":"CABA","cordon":0,"enRed":true,"lat":-34.62847,"lon":-58.52355,"comuna":10},"geometry":{"type":"Polygon","coordinates":[[[-58.522829738372565,-34.62348563357099],[-58.51512496068795,-34.62941935662504],[-58.50838655885877,-34.63459849448729],[-58.5202386965446,-34.63279640775087],[-58.52068541582892,-34.63382022473288],[-58.53035633098099,-34.634794524044736],[-58.53080019617812,-34.62752214848599],[-58.522829738372565,-34.62348563357099]]]}},{"type":"Feature","properties":{"nombre":"Villa Crespo","region":"CABA","cordon":0,"enRed":true,"lat":-34.59804,"lon":-58.44099,"comuna":15},"geometry":{"type":"Polygon","coordinates":[[[-58.42336928246166,-34.597747393890565],[-58.427775087919215,-34.598328442994706],[-58.43224225861244,-34.60213324236865],[-58.43920297270115,-34.60558226113534],[-58.446248450324816,-34.60761502962948],[-58.45893531425453,-34.60437320865605],[-58.45623704827498,-34.597589737806764],[-58.43853723603448,-34.58866748031371],[-58.42336928246166,-34.597747393890565]]]}},{"type":"Feature","properties":{"nombre":"Villa Del Parque","region":"CABA","cordon":0,"enRed":true,"lat":-34.60633,"lon":-58.48921,"comuna":11},"geometry":{"type":"Polygon","coordinates":[[[-58.48345568510112,-34.59775787307543],[-58.476392120151935,-34.60019927934834],[-58.477498519956974,-34.600824801348786],[-58.474016507698096,-34.60531071658645],[-58.477618106831,-34.60735925026378],[-58.488653521380584,-34.61013559374814],[-58.49478455932727,-34.615015498532586],[-58.506166206981256,-34.60237833249791],[-58.49712719802084,-34.59678841014284],[-58.48345568510112,-34.59775787307543]]]}},{"type":"Feature","properties":{"nombre":"Villa Devoto","region":"CABA","cordon":0,"enRed":true,"lat":-34.5996,"lon":-58.51291,"comuna":11},"geometry":{"type":"Polygon","coordinates":[[[-58.503470528931274,-34.59395355296016],[-58.49717404878441,-34.59681727062278],[-58.506166206981256,-34.60237833249791],[-58.50019122572415,-34.60912538295531],[-58.5130448564516,-34.61673120278661],[-58.516948082453375,-34.6202146613092],[-58.529466490537764,-34.61089536010676],[-58.51553457624017,-34.58126844682378],[-58.503470528931274,-34.59395355296016]]]}},{"type":"Feature","properties":{"nombre":"Villa Gral. Mitre","region":"CABA","cordon":0,"enRed":true,"lat":-34.61101,"lon":-58.4695,"comuna":11},"geometry":{"type":"Polygon","coordinates":[[[-58.45893531425453,-34.60437320865605],[-58.46270496534183,-34.607372483490124],[-58.45944878550957,-34.61388497915074],[-58.47162103123299,-34.619154541380816],[-58.48040986836252,-34.60812629589974],[-58.476364447545876,-34.606748960080935],[-58.468912371012124,-34.60186002103897],[-58.45893531425453,-34.60437320865605]]]}},{"type":"Feature","properties":{"nombre":"Villa Lugano","region":"CABA","cordon":0,"enRed":true,"lat":-34.67727,"lon":-58.4765,"comuna":8},"geometry":{"type":"Polygon","coordinates":[[[-58.46443016485797,-34.660047667910746],[-58.47036563660766,-34.66443685138065],[-58.45064146193475,-34.680036166193375],[-58.4633957231697,-34.69178972753136],[-58.475796500396434,-34.68213569484225],[-58.48335416318248,-34.68895231880733],[-58.50252408287417,-34.67450672779367],[-58.49703833366884,-34.67117853618102],[-58.48895123101557,-34.66334673893835],[-58.48594426126526,-34.66244648479715],[-58.478817104542586,-34.65784285635586],[-58.47251483788219,-34.6627710579967],[-58.470570200581356,-34.65842521017464],[-58.46955563649736,-34.65910372270439],[-58.46765506665677,-34.65751381963162],[-58.46443016485797,-34.660047667910746]]]}},{"type":"Feature","properties":{"nombre":"Villa Luro","region":"CABA","cordon":0,"enRed":true,"lat":-34.63566,"lon":-58.50142,"comuna":10},"geometry":{"type":"Polygon","coordinates":[[[-58.51164969614588,-34.62427798100962],[-58.49311505312084,-34.636512357317045],[-58.487804627876955,-34.64129879494689],[-58.49530087366283,-34.64484673634239],[-58.49713623482311,-34.64340827079344],[-58.502297877323464,-34.645816960135065],[-58.5098203426521,-34.64000730247518],[-58.510507726882075,-34.637369931427756],[-58.50567057466037,-34.636716898778765],[-58.51066885052845,-34.63481657557311],[-58.50838655885877,-34.63459849448729],[-58.51638019900406,-34.628449581519426],[-58.51164969614588,-34.62427798100962]]]}},{"type":"Feature","properties":{"nombre":"Villa Ortuzar","region":"CABA","cordon":0,"enRed":true,"lat":-34.58086,"lon":-58.46739,"comuna":15},"geometry":{"type":"Polygon","coordinates":[[[-58.46736465688151,-34.57249646466105],[-58.460225480429045,-34.57829541024887],[-58.46037938968775,-34.585527642716876],[-58.466828452112026,-34.59059296655635],[-58.47080469472807,-34.587459918910454],[-58.473570810003736,-34.58176508198145],[-58.4754240927251,-34.579958470061214],[-58.478987903717254,-34.57912516128533],[-58.46736465688151,-34.57249646466105]]]}},{"type":"Feature","properties":{"nombre":"Villa Pueyrredon","region":"CABA","cordon":0,"enRed":true,"lat":-34.58304,"lon":-58.50243,"comuna":12},"geometry":{"type":"Polygon","coordinates":[[[-58.50987410162941,-34.5692656506823],[-58.5029456297401,-34.57354969286811],[-58.48879296797189,-34.58481833067386],[-58.503470528931274,-34.59395355296016],[-58.51553457624017,-34.58126844682378],[-58.50987410162941,-34.5692656506823]]]}},{"type":"Feature","properties":{"nombre":"Villa Real","region":"CABA","cordon":0,"enRed":true,"lat":-34.61785,"lon":-58.52575,"comuna":10},"geometry":{"type":"Polygon","coordinates":[[[-58.516948082453375,-34.6202146613092],[-58.52163441756833,-34.624404461082804],[-58.522829738372565,-34.62348563357099],[-58.53080019617812,-34.62752214848599],[-58.53151611470252,-34.6154932793838],[-58.529466490537764,-34.61089536010676],[-58.516948082453375,-34.6202146613092]]]}},{"type":"Feature","properties":{"nombre":"Villa Riachuelo","region":"CABA","cordon":0,"enRed":true,"lat":-34.69854,"lon":-58.4633,"comuna":8},"geometry":{"type":"Polygon","coordinates":[[[-58.44429586968348,-34.684929788415914],[-58.46171515280026,-34.70529036530399],[-58.48335416318248,-34.68895231880733],[-58.475796500396434,-34.68213569484225],[-58.4633957231697,-34.69178972753136],[-58.451142129083756,-34.68053555892687],[-58.44993537593577,-34.680498979548574],[-58.44429586968348,-34.684929788415914]]]}},{"type":"Feature","properties":{"nombre":"Villa Santa Rita","region":"CABA","cordon":0,"enRed":true,"lat":-34.61709,"lon":-58.48273,"comuna":11},"geometry":{"type":"Polygon","coordinates":[[[-58.47162103123299,-34.619154541380816],[-58.48274200456544,-34.62462904597239],[-58.49478455932727,-34.615015498532586],[-58.488653521380584,-34.61013559374814],[-58.48040986836252,-34.60812629589974],[-58.47162103123299,-34.619154541380816]]]}},{"type":"Feature","properties":{"nombre":"Villa Soldati","region":"CABA","cordon":0,"enRed":true,"lat":-34.67236,"lon":-58.44699,"comuna":8},"geometry":{"type":"Polygon","coordinates":[[[-58.43443469535466,-34.653111405353044],[-58.42674711842803,-34.65867224268133],[-58.424042708514044,-34.662045942218505],[-58.42739683193279,-34.66487681605792],[-58.44429586968348,-34.684929788415914],[-58.44993537593577,-34.680498979548574],[-58.45109834216478,-34.680815949093656],[-58.45077609702559,-34.679836179629504],[-58.47041146924261,-34.66436819981432],[-58.47019409766428,-34.663607718135374],[-58.46845194940409,-34.66365409987103],[-58.455324730959504,-34.65253087260958],[-58.45463659951399,-34.65082151787914],[-58.443324770199574,-34.651188290411675],[-58.43800651817509,-34.65580173412598],[-58.43443469535466,-34.653111405353044]]]}},{"type":"Feature","properties":{"nombre":"Villa Urquiza","region":"CABA","cordon":0,"enRed":true,"lat":-34.57145,"lon":-58.48786,"comuna":12},"geometry":{"type":"Polygon","coordinates":[[[-58.47298866816649,-34.56643597938784],[-58.46808161545893,-34.57290912346318],[-58.48879296797189,-34.58481833067386],[-58.5029456297401,-34.57354969286811],[-58.50903928153951,-34.56999772755386],[-58.49192955052844,-34.56130230683649],[-58.49099072609857,-34.562651285156306],[-58.483559505311746,-34.55910499063182],[-58.48115760193532,-34.56250024994812],[-58.47619024101399,-34.56684960886245],[-58.47298866816649,-34.56643597938784]]]}}]}